shop_name,address,phone_number,email,category,product,district,street_no,street_name,city,ward,ocr_result,file_name
Bún Bỏ 168,"Số 168 đường [tên đường], [phường], [quận], [thành phố]",,,Dịch vụ ẩm thực,"Bún Bỏ, các món ăn liên quan đến bún bỏ",[quận],,[tên đường],[thành phố],[phường],BÚN BỎ 168,crop_images/GPAH9262.JPG.jpg_1730835792.6505053.jpg
Bún Mọc Sài Gòn,"123 Nguyễn Du, Quận 1, TP. Hồ Chí Minh",,,Nhà hàng,Bún mọc,Quận 1,123,Nguyễn Du,TP. Hồ Chí Minh,,BÚN MỌC,crop_images/GPAH9263.JPG.jpg_1730835971.843949.jpg
Bún Mộc Đặc Biệt,"123 Đường Nguyễn Văn Linh, Quận 7, TP. Hồ Chí Minh",,,Nhà hàng đặc sản,Bún mộc,Quận 7,123,Đường Nguyễn Văn Linh,TP. Hồ Chí Minh,,BÚN MỌC,crop_images/GPAH9263.JPG.jpg_1730835971.8898153.jpg
HƯNG PHÚ,,0918.268.077,,BỔ KHO BÁNH MÌ,HỦ TÚI GIÒ HÈO,,,,,,"HƯNG PHÚ
0918.268.077
HỦ TÚI GIÒ HÈO - BỔ KHO BÁNH MÌ",crop_images/GPAH9266.JPG.jpg_1730836592.642375.jpg
HƯNG PHÚ,0916.269.077,HỦ TỤ GIÒ HÈO,BỔ KHO BÁNH MÌ,,,,,,,,"HƯNG PHÚ
0916.269.077
HỦ TỤ GIÒ HÈO - BỔ KHO BÁNH MÌ",crop_images/GPAH9266.JPG.jpg_1730836592.6640565.jpg
Hủ Tiếu Gà Xé Phay,"123 Đường Nguyễn Văn Linh, Quận 7, TP.HCM",,,Món ăn miền Nam,"Hủ tiếu giò heo, bò kho bánh mì",Quận 7,123,Đường Nguyễn Văn Linh,TP.HCM,,HỦ TÍU GIỜ HEO - BÒ KHO BÁNH MÌ,crop_images/GPAH9266.JPG.jpg_1730836592.727581.jpg
Cửa Hàng VLXD Tuấn Nga,,,,"Vật liệu xây dựng, Thiết bị điện, Các sản phẩm gạch, vật liệu xây dựng khác và các loại sắt phẩm","Điện, Người dùng, Gạch, Cẩm, Đái, Sắt, Phế phẩm",,,,,,"CỬA HÀNG VLXD
TUẦN NGA
CHUYÊN BÁN ĐIỆN, NGƯỜI DỤNG
GẠCH, CẤM, ĐÃI, SẮT PHÉP",crop_images/GPAH9274.JPG.jpg_1730838606.5062292.jpg
Cửa hàng VLXD Tuấn Nga,,,,"Vật liệu xây dựng, thiết bị điện, thiết bị nước","Điện, nước gia dụng, Gạch, cốt, bà, mằng, bạt phếp",,,,,,"CỬA HÀNG VLXD
TUẦN NGA
CHUYÊN BÁN ĐIỆN, NƯỚC GIA ĐÔNG
GẠCH, CỐT, BÀ, MẮNG, BẤT PHÉP",crop_images/GPAH9274.JPG.jpg_1730838606.5151772.jpg
VLXD Tuần Nga,,,,Vật liệu xây dựng và xây lắp,"Bê tông, Nước đá dùng cho xây dựng, Vật liệu cắt, Đá xây dựng, Đi nháng, Vật liệu mất phếp",,,,,,"CỬA HÀNG VLXD TUẦN NGA
CHUYÊN BÁN BIỆN, NƯỚC ĐỊA DỤNG
BẠCH, CẮT, ĐÁ, ĐI NHÁNG, MẤT PHÉP",crop_images/GPAH9274.JPG.jpg_1730838606.5276139.jpg
Tuấn Nga VLXD,,,,Vật liệu xây dựng (VLXD),"Điện, gạch, cây, đất, sắt phế liệu",,,,,,"CỬA HÀNG VLXD
TUẦN NGA
CHUYÊN BÁN ĐIỆN, NHỮNG DỊCH VỤ GẠCH, CÂY, ĐẤT, SẮT PHÉP",crop_images/GPAH9274.JPG.jpg_1730838606.5391376.jpg
Cửa hàng VLXD Tuấn Nga,"615 Hưng Phú, P.9, Q.B, TP.HCM",0948.481.168,,,"Điện, nước gia dụng, gạch, cát, đá, xi măng, sắt thép",Q.B,615,Hưng Phú,TP.HCM,P.9,"Sửa hàng VLXD Tuấn Nga
Chuyên bán điện, nước gia dụng, gạch, cát, đá, xi măng sắt thép
ĐC: 615 Hưng Phú, P.9, Q.B, TP.HCM
DT: 0948.481.168",crop_images/GPAH9277.JPG.jpg_1730839066.0869823.jpg
VLXD Tuấn Nga,"615 Hưng Phú, Phường 9, Quận B, Thành phố Hồ Chí Minh",0948.481.168,,Vật liệu xây dựng,"Thiết bị điện, Thiết bị nước gia dụng, Gạch, Cát, Đá, Xi măng, Sắt thép",Quận B,615,Hưng Phú,Thành phố Hồ Chí Minh,Phường 9,"Sửa hàng VLXD Tuấn Nga
Chuyên bán điện, nước gia dụng, gạch, cát, đá, xi măng sắt thép
ĐC: 615 Hưng Phú, P.9, Q.B, TP.HCM
DT: 0948.481.168",crop_images/GPAH9277.JPG.jpg_1730839066.1445594.jpg
VLX Tuấn Nga,"615 Hưng Phú, P.9, Q.8, TP.HCM",,,thiết bị gia đình và vật liệu xây dựng,"điện, nước giặt, gạch, cát, dệt thép",Q.8,615,Hưng Phú,TP.HCM,P.9,"Cửa hàng VLX Tuấn Nga
Chuyên bán điện, nước giặt, gạch, cát, dệt thép
ĐC: 615 Hưng Phú, P.9, Q.8, TP.HCM",crop_images/GPAH9278.JPG.jpg_1730839278.7869802.jpg
Thảo,"613 Hưng Phú, Phường 9, Quận 8",,,Cửa hàng thức ăn nhanh,"Hủ tiếu xào, Mì xào giòn, Cơm chín đường châu, Cơm gà xôi mơ",Quận 8,613,Hưng Phú,,Phường 9,"THẢO
Hủ Tiếu Xào - Mì Xào Giòn - Cơm Chín Đường Châu - Cơm Gà Xôi Mơ
ĐC: 613 HƯNG PHÚ - P.9 - Q.8",crop_images/GPAH9278.JPG.jpg_1730839278.8049674.jpg
THẢO,"613 HƯNG PHÚ, Phường 9, Quận 8",,,Thực phẩm chế biến nhanh,"Hủ tiếu xào, mì xào giòn, cơm chiên Dương Châu, cơm gà xôi mơ",Quận 8,613,HƯNG PHÚ,,Phường 9,"THẢO
Hủ Tiếu Xào - Mì Xào Giòn - Cơm Chiên Dương Châu - Cơm Gà Xôi Mơ
ĐC: 613 HƯNG PHÚ - P.9 - Q.8",crop_images/GPAH9278.JPG.jpg_1730839278.839591.jpg
VLX Tuấn Nga,"615 Hưng Phú, P.9, Q.8, TP.HCM",,,Vật liệu xây dựng và hóa chất làm sạch,"Điện, nước giặt, gạch, cát, dệt thép",Quận 8,615,Hưng Phú,TP.HCM,Phường 9,"Cửa hàng VLX Tuấn Nga
Chuyên bán điện, nước giặt, gạch, cát, dệt thép
ĐC: 615 Hưng Phú, P.9, Q.8, TP.HCM",crop_images/GPAH9278.JPG.jpg_1730839278.8741195.jpg
THẢO,"623 Hồng Phú, Phường 4, Quận Bình Thạnh",0932.026.753,,Nhà hàng,"HỦ TIẾU XÀO, MÌ XÀO GIÒN, CƠN CHIÊN DƯƠNG CHÙA",Quận Bình Thạnh,623,Hồng Phú,,Phường 4,"THẢO
HỦ TIẾU XÀO - MÌ XÀO GIÒN - CƠN CHIÊN DƯƠNG CHÙA
DT: 0932.026.753
ĐC: 623 HỒNG PHÚ - P.B-4",crop_images/GPAH9279.JPG.jpg_1730839516.450856.jpg
THẢO,,0932.026.753,,"Món ăn gia đình châu Á, đặc biệt là các món xào và chiên","HỦ TIẾU XÀO, MÌ XÀO GIÒN, CƠN CHIÊN DƯƠNG CHẦU",,,,,,"THẢO
HỦ TIẾU XÀO - MÌ XÀO GIÒN - CƠN CHIÊN DƯƠNG CHẦU
DT: 0932.026.753",crop_images/GPAH9279.JPG.jpg_1730839516.4766524.jpg
Thảo,,,,Quán ăn,"Hủ Tiếu Xào, Mì Xào Gỏi, Cảm Chiên",,,,,,"Thảo
Hủ Tiếu Xào - Mì Xào Gỏi - Cảm Chiên Đường Chàu",crop_images/GPAH9279.JPG.jpg_1730839516.4872086.jpg
Nhà hàng Phở Bò Kho,"Số 10 Đường Nguyễn Du, Quận 1, Thành phố Hồ Chí Minh",,,Nhà hàng,"Phở, Bò kho",Quận 1,10,Đường Nguyễn Du,Thành phố Hồ Chí Minh,,Phở - Bò kho,crop_images/GPAH9281.JPG.jpg_1730839752.224036.jpg
Phở Út Lanh,"Số 12, Đường Nguyễn Du",,,"Quán ăn, món ăn Việt Nam","Phở, Bò kho",Quận 1,,,Thành phố Hồ Chí Minh,,Phở - Bò kho,crop_images/GPAH9281.JPG.jpg_1730839752.2505229.jpg
Chào Long,"601 Hưng Phú, Phường 9, Quận 8",22.000 đ,,,,Quận 8,601,Hưng Phú,,Phường 9,"Chào Long
22.000 đ
601 Hưng Phú, P.9, Q.8",crop_images/GPAH9282.JPG.jpg_1730839958.0903652.jpg
Chào Long,"601 Hưng Phú, Phường 9, Quận 8",22.000 đ,,,,Quận 8,,Hưng Phú,,Phường 9,"Chào Long
22.000 đ
601 Hưng Phú, P.9, Q.8",crop_images/GPAH9282.JPG.jpg_1730839958.1087947.jpg
VĂN PHÒNG PHẨM VĨNH LỢI,"593C Hung Phú, P.9, Q.8",0941 126 424,,"Văn phòng phẩm, mỹ phẩm, đồ chơi trẻ em","SÁCH GIÁO KHOA, VĂN PHÒNG PHẨM, MỸ PHẨM, ĐỒ CHƠI TRẺ EM",Q.8,593C,Hung Phú,,P.9,"VĂN PHÒNG PHẨM VĨNH LỢI
CHUYÊN CUNG CẤP: SÁCH GIÁO KHOA
VĂN PHÒNG PHẨM - MỸ PHẨM - ĐỒ CHƠI TRẺ EM
593C Hung Phú, P.9, Q.8
DT/ZALO: 0941 126 424",crop_images/GPAH9286.JPG.jpg_1730840804.8461056.jpg
VĂN PHÒNG PHẨM VĨNH LỢI,"593C Hưng Phú, P.9, Q.8",0941 126 424,,"Văn phòng phẩm, Sách giáo khoa, Mỹ phẩm, Đồ chơi trẻ em","Sách giáo khoa, Văn phòng phẩm, Mỹ phẩm, Đồ chơi trẻ em",Q.8,593C,Hưng Phú,,P.9,"VĂN PHÒNG PHẨM VĨNH LỢI
CHUYÊN CUNG CẤP: SÁCH GIÁO KHOA
VĂN PHÒNG PHẨM - MỸ PHẨM - ĐỒ CHƠI TRẺ EM
593C Hưng Phú, P.9, Q.8
DT/ZALO: 0941 126 424",crop_images/GPAH9286.JPG.jpg_1730840804.8806229.jpg
VĂN PHÒNG PHẨM VĨNH LỢI,"593C Hung Phú, Phường 9, Quận 8",0941 126 424,,"VĂN PHÒNG PHẨM, MỸ PHẨM, ĐỒ CHƠI TRẺ EM",SÁCH GIÁO KHOA,Quận 8,593C,Hung Phú,,Phường 9,"VĂN PHÒNG PHẨM VĨNH LỢI
CHUYÊN CUNG CẤP: SÁCH GIÁO KHOA
VĂN PHÒNG PHẨM - MỸ PHẨM - ĐỒ CHƠI TRẺ EM
593C Hung Phú, P.9, Q.8
DT/ZALO: 0941 126 424",crop_images/GPAH9286.JPG.jpg_1730840804.9009645.jpg
VĂN PHÒNG PHẨM VĨNH LỢI,"593C Hưng Phú, P.9, Q.8",0941 126 424,,"Văn phòng phẩm, Sách giáo khoa, Mỹ phẩm, Đồ chơi trẻ em","Sách giáo khoa, Văn phòng phẩm, Mỹ phẩm, Đồ chơi trẻ em",Q.8,593C,Hưng Phú,,P.9,"VĂN PHÒNG PHẨM VĨNH LỢI
CHUYÊN CUNG CẤP: SÁCH GIÁO KHOA
VĂN PHÒNG PHẨM - MỸ PHẨM - ĐỒ CHƠI TRẺ EM
593C Hưng Phú, P.9, Q.8
DT/ZALD: 0941 126 424",crop_images/GPAH9287.JPG.jpg_1730840971.233984.jpg
VĂN PHÒNG PHẨM VĨNH LỢI,"593C Hưng Phú, P.9, Quận B",,,"Văn phòng phẩm, sách giáo khoa, mỹ phẩm, đồ chơi trẻ em",,B,593C,Hưng Phú,,9,"VĂN PHÒNG PHẨM VĨNH LỢI
CHUYÊN CUNG CẤP: SÁCH GIÁO KHOA
VĂN PHÒNG PHẨM - MỸ PHẨM - ĐỒ CHƠI TRẺ EM
593C Hưng Phú, P.9, Q.B",crop_images/GPAH9287.JPG.jpg_1730840971.2934792.jpg
VĂN PHÒNG PHẨM VĨNH LỢI,"593C Hung Phú, P.9, Q.B",0941 126 424,,"Cửa hàng chuyên cung cấp sách giáo khoa, văn phòng phẩm, mỹ phẩm và đồ chơi trẻ em.","Sách giáo khoa, Văn phòng phẩm, Mỹ phẩm, Đồ chơi trẻ em",Q.B,593C,Hung Phú,,P.9,"VĂN PHÒNG PHẨM VĨNH LỢI
CHUYÊN CUNG CẤP: SÁCH GIÁO KHOA
VĂN PHÒNG PHẨM - MỸ PHẨM - ĐỒ CHƠI TRẺ EM
593C Hung Phú, P.9, Q.B
DT/ZALD: 0941 126 424",crop_images/GPAH9287.JPG.jpg_1730840971.3044739.jpg
VĂN PHÒNG PHẨM VĨNH LỢI,,,,"Văn phòng phẩm, sách giáo khoa, đồ chơi trẻ em",,,,,,,"VĂN PHÒNG PHẨM VĨNH LỢI
CHUYÊN CUNG CẤP: SÁCH GIÁO KHOA
VĂN PHÒNG PHẨM - UY PHẨM - ĐỒ CHƠI TRẺ EM",crop_images/GPAH9288.JPG.jpg_1730841229.7406266.jpg
Gas South & Good Gas,"591 Hùng Phú, Phường 9, Quận 8, Thành phố Hồ Chí Minh","028.39 877 888, 0888 222 679",,Gas station,"Natural Energy, Khí miền Nam, Gas Tốt",Quận 8,591,Hùng Phú,Thành phố Hồ Chí Minh,Phường 9,"CÔNG TY CỔ PHẦN KINH DOANH KHÍ MIÊN NAM
GAS SOUTH
Natural Energy
CÔNG TY CỔ PHẦN GAS TỐT - CHI NHÁNH GAS HÙNG PHÚ
Good Gas
Chia sẻ để yêu thương
591 HÙNG PHÚ, P.9, Q.8, TP.HCM
028.39 877 888
0888 222 679
GPKD: 0312830302-003
GCNDK SỐ: 58/GCNĐK - UBND",crop_images/GPAH9289.JPG.jpg_1730841377.1870086.jpg
Đại Lý Hưng Cao,"509 Hưng Phú, Phường 9, Quận 8, TP. Hồ Chí Minh",028.3857 9536 - 0784.539663,,Đại lý bán lẻ,"Các loại bia, nước ngọt, nước suối, đá tinh khiết",Quận 8,509,Hưng Phú,Hồ Chí Minh,Phường 9,"ĐẠI LÝ
HƯNG CAO
CÁC LOẠI BIA, NƯỚC NGỌT, NƯỚC SUỐI, ĐÁ TINH KHIẾT
509 HƯNG PHÚ, P.9 - Q.8 DT: 028.3857 9536 - 0784.539663",crop_images/GPAH9290.JPG.jpg_1730841473.0341086.jpg
ĐẠI LÝ HƯNG CAO,"509 Hưng Phú, Phường 9, Quận 8, TP. Hồ Chí Minh",028.3857 9536 - 0784.539663,,"Đại lý cung cấp các loại bia, nước ngọt, nước suối và đá tinh khiết","Bia, nước ngọt, nước suối, đá tinh khiết",Quận 8,509,Hưng Phú,TP. Hồ Chí Minh,Phường 9,"ĐẠI LÝ
HƯNG CAO
CÁC LOẠI BIA, NƯỚC NGỌT, NƯỚC SUỐI, ĐÁ TINH KHIẾT
509 HƯNG PHÚ, P.9 - Q.8 DT: 028.3857 9536 - 0784.539663",crop_images/GPAH9290.JPG.jpg_1730841473.0985672.jpg
Nghệ Thuật Cắt Tóc Minh Hùng,"587 Hưng Phú, Phường 9, Quận 8, Thành phố Hồ Chí Minh",0908 586 175,,"Salon làm tóc, làm móng, dịch vụ làm đẹp","Tạo mẫu các kiểu tóc nam và nữ, Uốn, duỗi, nhuộm tóc, Hấp dầu cho tóc, Làm móng tay, Vẽ móng, Nối mi, Trang điểm",Quận 8,587,Hưng Phú,Hồ Chí Minh,Phường 9,"NGHỆ THUẬT CẮT TÓC
Minh Hùng
Chuyên: - Tạo Mẫu Các Kiểu Tóc Nam - Nữ
- Uốn - Duỗi - Nhuộm - Hấp Dầu
- Làm Móng - Vẽ - Nối Mi - Trang Điểm
587 Hưng Phú P.9 - Q.8
DT: 0908 586 175",crop_images/GPAH9291.JPG.jpg_1730841597.462401.jpg
Hát Tóc MINH HÙNG,"587 Hưng Phú, Phường 9, Quận 8",0908.586.175,,Salon làm tóc,Dịch vụ làm tóc,Quận 8,587,Hưng Phú,,Phường 9,"Hát Tóc MINH HÙNG
ĐC: 587 HƯNG PHÚ - P.9 - Q.8 * DT: 0908.586.175",crop_images/GPAH9291.JPG.jpg_1730841597.486818.jpg
Nghệ Thuật Cắt Tóc Minh Hùng,"587 Hưng Phú, Phường 9, Quận 8, Tp. Hồ Chí Minh",0908 586 175,,Salon làm đẹp,"Dịch vụ tạo mẫu tóc, uốn duỗi nhuộm, làm móng, vẽ, nối mi, trang điểm",Quận 8,587,Hưng Phú,Hồ Chí Minh,Phường 9,"NGHỆ THUẬT CẮT TÓC
Minh Hùng
Chuyên:
- Tạo Mẫu Các Kiểu Tóc Nam - Nữ
- Uốn - Duỗi - Nhuộm - Hấp Dầu
- Làm Móng - Vẽ - Nối Mi - Trang Điểm
587 Hưng Phú P.9 - Q.8
DT: 0908 586 175",crop_images/GPAH9291.JPG.jpg_1730841597.5207808.jpg
Minh Hương Cắt Tóc,Không được cung cấp,,,Salon làm tóc,Dịch vụ cắt tóc,,,,,,"CẮT TÓC
MINH HƯƠNG
TẠO KIỂM MỚI - KHÔNG",crop_images/GPAH9292.JPG.jpg_1730841791.6917126.jpg
Nha khoa Loàng Ma,"Ngõ Phủ, Phường 9, Quận 8",0975720,,Dịch vụ nha khoa,"Dịch vụ chăm sóc nha khoa đa dạng, bao gồm nha khoa tổng quát, nha khoa thẩm mỹ, chỉnh nha xương hàm, mài răng sứ, cắm ghép implant, điều trị tủy, niềng răng, làm trắng răng, cắt lợi, cắt cầu",Quận 8,,,,,"NHA KHOA
LOÀNG MA
NG PHỦ P.9 - Q.8
DT: 0975720",crop_images/GPAH9292.JPG.jpg_1730841791.719129.jpg
NHA KHOA HOÀNG MAI,"581 Hưng Phú, Phường 9, Quận 8",0919 175 720,,Dịch vụ nha khoa,"Chăm sóc nha khoa chất lượng, điều trị các vấn đề về răng miệng, cung cấp dịch vụ nha khoa chuyên nghiệp.",Quận 8,,,,Phường 9,"NHA KHOA
HOÀNG MAI
581 HƯNG PHÚ P.9 - Q.8
DT: 0919 175 720",crop_images/GPAH9293.JPG.jpg_1730841964.6966653.jpg
Nhà Thuốc Pharmcity,[Địa chỉ cụ thể],,,Dược phẩm,"Thuốc chữa bệnh, sản phẩm chăm sóc sức khỏe",,,,,,"Nhà Thuốc
Pharmcity
Drugstore",crop_images/GPAH9294.JPG.jpg_1730842062.7753065.jpg
Nhà Thuốc Pharmacity,"123 Đường ABC, Thành phố XYZ",,,Dược phẩm,"Phát triển não bộ, Sức khỏe cho mắt, Tiêu hóa khỏe",,,,,,"Nhà Thuốc
Pharmacity
Drugstore
Phát triển não bộ sức khỏe cho mắt
Tiêu hóa khỏe
Giảm đến 40% + Nhận ngay 10.000 VNĐ",crop_images/GPAH9294.JPG.jpg_1730842062.8404772.jpg
Nhà Thuốc Pharmacity,,,,Nhà thuốc / Dược phẩm / Sản phẩm y tế,Thuốc và sản phẩm y tế,,,,,,"Nhà Thuốc
Pharmacity
Drugstore",crop_images/GPAH9295.JPG.jpg_1730842349.450635.jpg
Nhà Thuốc Pharmacity,,,,Thuốc và sản phẩm y tế,"Phát triển não bộ - sức khỏe cho mắt, Tiêu hóa khỏe, Giảm đến 40%, Giảm 10%, Sản phẩm chăm sóc sức khỏe bằng tiếng Anh",,,,,,"Nhà Thuốc
Pharmacity
Drugstore
PHÁT TRIỂN NÃO BỘ SỨC KHỎE CHO MẮT
TIÊU HÓA KHỎE
GIẢM ĐẾN +40% 10%
ENGLISH THĂNG ĐƯỢC SẢN XUẤT",crop_images/GPAH9295.JPG.jpg_1730842349.4622405.jpg
Thanh Thảo,"573 Hưng Phú, Phường 9, Quận 8",0985 513 713,,,,Quận 8,573,Hưng Phú,,Phường 9,"Thanh Thảo
573
HƯNG PHÚ - P.9 - Q.8
0985 513 713",crop_images/GPAH9297.JPG.jpg_1730842836.0976043.jpg
Y MINH coffee shop,"573A Hưng Phủ, Phường 9, Quận 8",0908000718,,Quán cà phê,Cà phê và các loại thức uống khác,Quận 8,573A,Hưng Phủ,Thành phố Hồ Chí Minh,Phường 9,"Coffee L'Amant Chính Của Lại
Y MINH coffee shop
CN: 573A Hưng Phủ, P.9, Q.8 | DT: 0908000718",crop_images/GPAH9297.JPG.jpg_1730842836.1301148.jpg
Bò Sèo Petshop,"565 Hùng Phú, Phường 9, Quận B, TP.HCM",DT: 077 6919 314 - 0977 486 570,,Cửa hàng dành cho thú cưng,Làm đẹp thú cưng - Spa - Hotel,Quận B,565,Hùng Phú,TP.HCM,Phường 9,"Bức ảnh chụp một tấm biển hiệu màu vàng với dòng chữ ""Bò Sèo Petshop"" được viết bằng chữ in hoa màu đen. Dưới dòng chữ này là dòng chữ ""LÀM ĐẸP THÚ CUNG - SPA - HOTEL"" cũng được viết bằng chữ in hoa màu đen. Phía dưới cùng của biển hiệu là địa chỉ và số điện thoại của cửa hàng: ""565 HÙNG PHÚ - P9 - QUẬN B - TP.HCM"" và ""DT: 077 6919 314 - 0977 486 570"".",crop_images/GPAH9300.JPG.jpg_1730843488.589014.jpg
Làm Đẹp Trọn Vẹn,,,,Salons & Spas,Dịch vụ làm đẹp,,,,,,"Bức ảnh chụp một biển hiệu quảng cáo với nền màu vàng cam. Biển hiệu được chia làm hai phần: phần trên là chữ ""Làm đẹp trọn vẹn"", phần dưới là dòng chữ nhỏ hơn ghi địa chỉ và số điện thoại. Chữ ""Làm đẹp trọn vẹn"" được viết bằng chữ in hoa, cỡ chữ lớn, màu đen nổi bật trên nền vàng. Dòng chữ nhỏ hơn ghi địa chỉ và số điện thoại ở phần dưới của biển hiệu, cũng được viết bằng chữ in hoa, cỡ chữ nhỏ hơn chữ ""Làm đẹp trọn vẹn"".",crop_images/GPAH9301.JPG.jpg_1730843644.4502409.jpg
Bakery Minh Hương,"57 Hưng Phú, Phường 9, Quận 8",0373969663,,Bakery,"Các loại bánh ngọt, bánh mì, bánh ngọt đặc biệt",Quận 8,57,Hưng Phú,,Phường 9,"Bakery
MINH HƯƠNG
57 Hưng Phú, Phường 9, Quận 8. ĐT: 0373969663",crop_images/GPAH9302.JPG.jpg_1730843841.180051.jpg
Phở Quyên,"Số 10, Phố Hàng Trống, Quận Hoàn Kiếm, Hà Nội",,,Phở Việt Nam truyền thống,"Phở gà, phở bò, phở tái lăn, phở gân, chả cá phở",Hoàn Kiếm,10,Phố Hàng Trống,Hà Nội,,PHỞ QUYÊN,crop_images/GPAH9302.JPG.jpg_1730843841.2126281.jpg
Minh Hương Bakery,"7 Hưng Phú, Phường 9, Quận 8",0373969663,,Bakery,"Bakery products including various bread, pastries, crepes; specialized in mooncakes, birthday cakes, wedding cakes; snacks and drinks available",Quận 8,7,Hưng Phú,,Phường 9,"Bakery
MINH HƯƠNG
7 Hưng Phú, Phường 9, Quận 8. DT: 0373969663",crop_images/GPAH9302.JPG.jpg_1730843841.2191916.jpg
Minh Hương Bakery,"7 Hưng Phú, Phường 9, Quận 8",0373969663,,Bakery,"Bánh mì tươi, Bánh ngọt, Bánh ngọt Pháp, Bánh su kem, Bánh cupcakes và bánh lớn cho các dịp đặc biệt",Quận 8,7,Hưng Phú,,Phường 9,"Bakery
MINH HƯƠNG
7 Hưng Phú, Phường 9, Quận 8. DT: 0373969663",crop_images/GPAH9302.JPG.jpg_1730843841.2485163.jpg
Bánh Mì Thịt Bỉ Chay,,,,"Bánh mì, món ăn chay, đồ uống từ trái cây","Bánh mì, sữa trái cây",,,,,,"Bánh Mì
Thịt, Bỉ Chay
Sữa Trái Cây
Bưởi Da Xanh - Mít Thân",crop_images/GPAH9303.JPG.jpg_1730844074.335232.jpg
Nha Khoa Phương Tây,,,,"Dịch vụ nha khoa, chăm sóc răng miệng",Dịch vụ nha khoa chất lượng,,,,,,NHA KHOA PHƯƠNG TÂY,crop_images/GPAH9306.JPG.jpg_1730844589.6942642.jpg
NHA KHOA PHƯƠNG TÂY,"123 Nguyễn Văn Linh, Quận 7, TP.HCM",,,Dịch vụ nha khoa,"Làm trắng răng, nha khoa phục hình, chữa trị sâu răng, cấy ghép Implant, nha khoa tổng quát",Quận 7,123,Nguyễn Văn Linh,TP.HCM,,NHA KHOA PHƯƠNG TÂY,crop_images/GPAH9306.JPG.jpg_1730844589.7298217.jpg
NHA KHOA PHƯƠNG TÂY,"Số 10, Đường Trần Phú",,,Dịch vụ nha khoa,"Chăm sóc răng miệng, làm trắng răng, niềng răng, nha khoa thẩm mỹ",Quận 5,,,Thành phố Hồ Chí Minh,,NHA KHOA PHƯƠNG TÂY,crop_images/GPAH9306.JPG.jpg_1730844589.762216.jpg
Hót Tóc Nam A Lập,"529 Hùng Phú, Phường 9, Quận 8",,,"Salon tóc nam, dịch vụ làm tóc nam","Ráy tóc, gội đầu, nhuộm tóc",Quận 8,529,Hùng Phú,,Phường 9,"HÓT TÓC NAM A LẬP
RÁY TAI - GỘI ĐẦU - NHUỘM
529 HÙNG PHÚ - P.9 - Q.8",crop_images/GPAH9311.JPG.jpg_1730845515.1837082.jpg
Phone Store,"525 - 527 Hưng Phú, Phường 9, Quận 8, TP. Hồ Chí Minh",3913.62.60,,Bán lẻ điện thoại di động và phụ kiện điện thoại,"Điện thoại di động, phụ kiện điện thoại",Quận 8,525 - 527,Hưng Phú,TP. Hồ Chí Minh,Phường 9,"Điện thoại: 3913.62.60
525 - 527 HƯNG PHÚ F.9 - Q.8",crop_images/GPAH9312.JPG.jpg_1730845709.9276676.jpg
Điện Thoại 3913.62.60,"525 - 527 Hưng Phú, Phường 9, Quận 8",3913.62.60,,Cửa hàng điện thoại di động và phụ kiện,Điện thoại di động và phụ kiện liên quan,Quận 8,525 - 527,Hưng Phú,,Phường 9,"Điện thoại: 3913.62.60
525 - 527 HƯNG PHÚ F.9 - Q.8",crop_images/GPAH9312.JPG.jpg_1730845710.0518324.jpg
Mỹ phẩm cao cấp Nhật Kim Anh Laura Sunshine,"523 Hùng Phú, Phường 9, Quận B, TP.",0902.685.002 0909.933.751,,"Mỹ phẩm, nước hoa, sản phẩm làm đẹp Nhật Bản chất lượng cao","Mỹ phẩm cao cấp, nước hoa, sản phẩm làm đẹp từ Nhật Bản",,,,,,"MỸ PHẨM CAO CẤP NHẬT KIM ANH
LAURA SUNSHINE
NPP ĐỘC QUYỀN QUẬN & HỒNG YẾN
523 HÙNG PHÚ PHƯỜNG.9-Q.B
0902.685.002 0909.933.751",crop_images/GPAH9313.JPG.jpg_1730845879.4389477.jpg
Nhật Kim Anh,,,,Dược mỹ phẩm,Chăm sóc da,,,,,,"NHẬT KIM ANH
Chăm Sóc Da",crop_images/GPAH9313.JPG.jpg_1730845879.494901.jpg
Mỹ Phẩm Cao Cấp Nhật Kim Anh Laura Sunshine,"523 Hưng Phú, Phường 9, Quận 8, Tp. Hồ Chí Minh",0902.685.002 0909.833.791,,Mỹ phẩm cao cấp,Mỹ phẩm cao cấp nhập khẩu độc quyền,Quận 8,523,Hưng Phú,Hồ Chí Minh,Phường 9,"MỸ PHẨM CAO CẤP NHẬT KIM ANH
LAURA SUNSHINE
NPP ĐỘC QUYỀN QUẬN 8
HỒNG YÊN
523 HƯNG PHÚ PHƯỜNG.9 - Q.8
0902.685.002 0909.833.791",crop_images/GPAH9313.JPG.jpg_1730845879.5013444.jpg
Mỹ Phẩm Cao Cấp Nhật King Anh Laura Sunshine,"523 Hùng Phú, Phường 9, Quận 8, TP.Hồ Chí Minh",0902.685.002 0909.933.791,,Mỹ phẩm cao cấp từ Nhật Bản,"Kem dưỡng da, sữa rửa mặt, serum, mặt nạ và sản phẩm chăm sóc da khác",Quận 8,523,Hùng Phú,TP.Hồ Chí Minh,Phường 9,"MỸ PHẨM CAO CẤP NHẬT KING ANH
LAURA SUNSHINE
NPP ĐỘC QUYỀN QUẬN 8
HỒNG YÊN
523 HÙNG PHÚ PHƯỜNG.9-Q.B
0902.685.002 0909.933.791
525",crop_images/GPAH9313.JPG.jpg_1730845879.5297139.jpg
Cafe Lâm Việt,"123 Trần Hưng Đạo, Quận 1, TP.HCM",,,Quán cà phê,"Cà phê rang xay sạch, Trà sữa, Nước trái cây tươi, Mochas, Cappuccinos, Đồ ăn nhẹ, Bánh ngọt",Quận 1,123,Trần Hưng Đạo,TP.HCM,,Cafe Lâm Việt,crop_images/GPAH9314.JPG.jpg_1730846170.9719825.jpg
Cafe Lâm Việt,"519 Hùng Phú, Phường 9, Quận 8, TP.Hồ Chí Minh",,,Quán cafe,Đồ uống phong phú tại quán cafe,Quận 8,519,Hùng Phú,TP.Hồ Chí Minh,Phường 9,"Cafe
Lâm Việt
519 HÙNG PHÚ P 9 Q.8",crop_images/GPAH9314.JPG.jpg_1730846171.02687.jpg
Cafe Lân,Không rõ,,,Cafe,"Các loại thức uống cafe như cappuccino, latte, espresso, và bánh ngọt",,,,,,"Cafe
Lân",crop_images/GPAH9315.JPG.jpg_1730846298.5678666.jpg
Cafe Lân,,,,Quán cà phê,Cafe và đồ uống,,,,,,"Cafe
Lân",crop_images/GPAH9315.JPG.jpg_1730846298.5904102.jpg
Cửa hàng điện thoại di động Thành Đạt,,,,Điện thoại di động và phụ kiện,,,,,,,"CỬA HÀNG ĐIỆN THOẠI DI ĐỘNG
THÀNH ĐẠT",crop_images/GPAH9317.JPG.jpg_1730846637.7156382.jpg
Phố 513,"513 Phường 9, Quận 8",0917.377.639,,,,Quận 8,513,Phường 9,,,"Phố
513
PHƯỜNG 9 - QUẬN 8
DT: 0917.377.639",crop_images/GPAH9319.JPG.jpg_1730846973.568838.jpg
Phố 513,"513 Phường 9, Quận 8",0917.377.639,,,,Quận 8,513,Phường 9,,,"Phố
513
PHƯỜNG 9 - QUẬN 8
DT: 0917.377.639",crop_images/GPAH9319.JPG.jpg_1730846973.5793548.jpg
Phố 513,"513 Phường 9, Quận 8",0917.377.639,,,,Quận 8,513,Phường 9,,,"Phố
513
PHƯỜNG 9 - QUẬN 8
DT: 0917.377.639",crop_images/GPAH9319.JPG.jpg_1730846973.5943506.jpg
KIM KAI SƠN,,,,,,,,,,,KIM KAI SƠN,crop_images/GPAH9324.JPG.jpg_1730847794.0468168.jpg
Cửa hàng 511 HÙNG PHÚ,"511 HÙNG PHÚ, phường 9, quận 8",0121 772 9992,,"Đồ uống, Sản phẩm vệ sinh, Bánh kẹo","Sữa, Tả, Bia, Nước Ngọt, Bánh Kẹo các loại",Quận 8,511,HÙNG PHÚ,,Phường 9,"CỬA HÀNG
511 HÙNG PHÚ
CHUYÊN MUA BÁN SỮA - TẢ - BIA - NƯỚC NGỌT - BÁNH KẸO CÁC LOẠI
511 HÙNG PHÚ P.9, Q.8
DT: 0121 772 9992",crop_images/GPAH9326.JPG.jpg_1730848473.5863967.jpg
Nhà Thuốc Long Châ,,,,dược phẩm,"các sản phẩm dược phẩm, thuốc chữa bệnh",,,,,,"NHÀ THUỐC
LONG CHÂ",crop_images/GPAH9326.JPG.jpg_1730848473.6030648.jpg
Nhà Thuốc Long Châu,"Lô Thị Bảo Ngọc, 01 Vũ Trứ, Phường Gò Vấp, TP.HCM",,,Nhà thuốc,"Bán lẻ thuốc thành phẩm, Dược mỹ phẩm, Máy đo huyết áp",Gò Vấp,01,Vũ Trứ,TP.HCM,,"NHÀ THUỐC LONG CHÂA
BÁN LẺ THUỐC THÀNH PHẨM
ĐC: Lô Thị Bảo Ngọc
ĐC: 01 Vũ Trứ, P. Gò Vấp & TP.HCM
TIM MẠCH TIỂU ĐƯỜNG
XUÔNG KHỚP THẦN KINH
GÂN DA DÀY
CHI ĐẸP LÊN SẮC - LÊN SỨC
HÀNG ÂU, ÚC, MỸ GIẢM ĐẾN 35%
DƯỢC MỸ PHẨM GIẢM ĐẾN 30%
MÁY DO HUYẾT ÁP GIẢM 20%",crop_images/GPAH9326.JPG.jpg_1730848473.6501067.jpg
CỬA THẦN THÁNH,"Đường Thăm Dương, Quận Hồng Bàng, Thành phố Hải Phòng",,,Vật liệu xây dựng,"Các loại cửa, cửa sổ, và vật liệu xây dựng từ gỗ",Hồng Bàng,,,Hải Phòng,,CỬA - ĐƠN - GỖI - NGUYÊN - DUỐI THĂM,crop_images/GPAH9327.JPG.jpg_1730848637.952689.jpg
Cửa hàng 511 HƯNG PHÚ,S11 HƯNG PHÚ P.9 Q.8,,,Siêu thị/Tiệm tạp hóa,"Sữa, Tả, Bia, Nước ngọt, Bánh, Kẹo",Quận 8,,,,,"CỬA HÀNG
511 HƯNG PHÚ
CHUYÊN MUA BÁN SỮA - TẢ - BIA - NƯỚC NGỌT - BÁNH KẸO CÁC LOẠI
S11 HƯNG PHÚ P.9 Q.8",crop_images/GPAH9327.JPG.jpg_1730848637.9698877.jpg
CỬA HÀNG 511,"511 HƯNG PHÚ, P.Q.B",,,Thực phẩm và đồ uống diversification,"Sữa, tả, địa, nước ngọt, bánh kẹo các loại",P,511,HƯNG PHÚ,,Q.B,"CỬA HÀNG
511 HƯNG PHÚ
CHUYÊN MUA BÁN SỮA - TẢ - ĐỊA - NƯỚC NGỌT - BÁNH KẸO CÁC LOẠI
511 HƯNG PHÚ P.Q.B",crop_images/GPAH9327.JPG.jpg_1730848637.9771504.jpg
Uốn Tóc Huỳnh Anh,"505 Hùng Phủ, Phường 9, Quận 4, Lô 372-382",,,Salon tóc,"Cắt tóc, uốn tóc, làm bội, nhuộm tóc, dịch vụ làm dầu thắng",Quận 4,505,Hùng Phủ,,Phường 9,"Uốn Tóc Huỳnh Anh
Cắt - Uốn - Bội - Nhuộm - Dưa Thắng
ĐC: 505 Hùng Phủ - P.9 - Q.4 - Lô 372 382",crop_images/GPAH9328.JPG.jpg_1730848761.6181276.jpg
Hưng Phú Đạt Chuẩn GPP,,,,,,,,,,,"HƯNG PHÚ
ĐẠT CHUẨN GPP",crop_images/GPAH9331.JPG.jpg_1730849342.9372156.jpg
Công ty TNHH Xây dựng Công Nghiệp và Dẫn Dụng Thiên An - Số 2,"Xây Nhà Phố, VN",076 538 5946 - 090 1199 538,,Xây dựng,Dịch vụ xây dựng nhà phố,,,,,,"CÔNG TY TNHH XÂY DỰNG CÔNG NGHIỆP VÀ DẪN DỤNG THIÊN AN - SỐ 2
XÂY NHÀ PHỐ. VN
DT - ZL: 076 538 5946 - 090 1199 538",crop_images/GPAH9331.JPG.jpg_1730849342.9570556.jpg
Công ty Thiết kế Thi công Xây dựng XYZ,"Số 123 Đường ABC, Quận XYZ, Thành phố HCM",,,Thi công xây dựng,"Dịch vụ thiết kế kiến trúc, nội thất, xây dựng và hoàn thiện công trình",XYZ,123,Đường ABC,Thành phố HCM,,THIẾT KẾ THI CÔNG XÂY DỰNG,crop_images/GPAH9332.JPG.jpg_1730849431.3503966.jpg
Điện Quang - CỬA HÀNG 487,"487 Hưng Phú, Phường 9, Quận 8, Thành phố Hồ Chí Minh",0903.137.005,,Điện - Nước Gia dụng,"Đèn chiếu sáng, sản phẩm thông minh (Smart), pin năng lượng mặt trời (Solar), sản phẩm điện gia dụng (Home), sản phẩm điện",Quận 8,487,Hưng Phú,Thành phố Hồ Chí Minh,Phường 9,"Điện Quang
Lighting, Smart, Solar, Home, Electric
CỬA HÀNG 487
CHUYÊN MUA BÁN ĐIỆN - NƯỚC GIA DỤNG
ĐC: 487 Hưng Phú, P.9, Q.8, TP.HCM
DT: 0903.137.005",crop_images/GPAH9333.JPG.jpg_1730849613.0645986.jpg
Thẩm Mỹ Quốc Tế Mr. Linh,"69 Hưng Phú, Phường 9, Quận 8, Thành phố Hồ Chí Minh",0971 663 017,,Dịch vụ thẩm mỹ,"Các dịch vụ thẩm mỹ đa dạng bao gồm facials, trị mụn, làm trắng da, tẩy tế bào chết, trang điểm chuyên nghiệp, và các liệu pháp làm đẹp khác.",Quận 8,69,Hưng Phú,Thành phố Hồ Chí Minh,Phường 9,"Thẩm Mỹ Quốc Tế Mr. Linh
Hotline: 0971 663 017
69 HƯNG PHÚ - P.9 - Q.8 - TP.HCM",crop_images/GPAH9333.JPG.jpg_1730849613.0952988.jpg
GẠO MINH PHẬT,Sỉ Lẻ 100 - 200,0986.375.400,,Gạo (bán sỉ và lẻ),Gạo,,,,,,"GẠO
MINH PHẬT
Sỉ Lẻ 100 - 200
Điện thoại: 0986.375.400",crop_images/GPAH9334.JPG.jpg_1730849848.5791419.jpg
GẠO MINH PHÁT,,0906 667 483,,Cung cấp sỉ & lẻ,"Gạo, Tấm, Nếp",,,,,,"GẠO MINH PHÁT
CHUYÊN: CUNG CẤP SỈ & LẺ
GẠO, TÂM, NẾP
DT: 0906 667 483",crop_images/GPAH9334.JPG.jpg_1730849848.6148143.jpg
GẠO MINH PHÁT,,0906 667 483,,Cung cấp sỉ & lẻ,"GẠO, TÂM, NẾP",,,,,,"GẠO MINH PHÁT
CHUYÊN: CUNG CẤP SỈ & LẺ
GẠO, TÂM, NẾP
DT: 0906 667 483",crop_images/GPAH9334.JPG.jpg_1730849848.633457.jpg
GẠO MINH PHẬT,"Đường ABC, Quận XYZ, Thành phố HCM",,,Cửa hàng chuyên cung cấp các loại gạo,"Gạo nguyên chất, gạo sạch",Quận XYZ,,,Thành phố HCM,,"GẠO
MINH PHẬT",crop_images/GPAH9334.JPG.jpg_1730849848.6963518.jpg
Nhân Dạy,,,,Giáo dục,"Dạy học từ lớp 1 - lớp 12, chuẩn bị cho kỳ thi tốt nghiệp THPT - Đại học, cung cấp giáo viên chuyên nghiệp với khả năng giảng dạy trong khoa học",,,,,,"NHÂN DẠY
TỪ LỚP 1 - LỚP 12
LỚP THPT - ĐẠI HỌC
THPT - ĐẠI HỌC
LỚP THPT - ĐẠI HỌC
GIAO VIÊN KHOA HỌC",crop_images/GPAH9335.JPG.jpg_1730850044.3001208.jpg
CẠO MINH PHÁT,,0906 667 483,,,"GẠO, TÂM, NẾP",,,,,,"CẠO MINH PHÁT
CHUYÊN: CUNG CẤP BỊ & LẺ
GẠO, TÂM, NẾP?
DT: 0906 667 483",crop_images/GPAH9335.JPG.jpg_1730850044.3147426.jpg
Cửa hàng Gạo Minh Phát,,0906 667 483,,Cung cấp sỉ & lẻ,"Gạo, tấm, nếp",,,,,,"CẠO MINH PHÁT
CHUYÊN: CUNG CẤP SỈ & LẺ
GẠO, TÂM, NẾP?
DT: 0906 667 483",crop_images/GPAH9335.JPG.jpg_1730850044.3460257.jpg
CẠO MINH PHÁT,,0906 667 483,,Kinh doanh gạo,"Gạo các loại: Tâm, Nếp",,,,,,"CẠO MINH PHÁT
CHUYÊN, CUNG CẤP SỈ & LẺ
GẠO, TÂM, NẾP
DT: 0906 667 483",crop_images/GPAH9335.JPG.jpg_1730850044.3580947.jpg
My Huế,"471 Hưng Phú, Phường 9, Quận 8, Thành phố Hồ Chí Minh",,,"Chuyên bán lẻ thuốc chữa bệnh, đạt chuẩn GPP",Thuốc chữa bệnh,Quận 8,471,Hưng Phú,Thành phố Hồ Chí Minh,Phường 9,"MY HUẾ
ĐẠT CHUẨN GPP
CHUYÊN BÁN LẺ THUỐC CHỮA BỆNH
DS. NGUYỄN THỊ HOÀI ANH
GPS: 2623 / HCM ĐKKDD
ĐC: 471 HƯNG PHÚ, PHƯỜNG 9, QUẬN 8, TP. HCM",crop_images/GPAH9338.JPG.jpg_1730850673.583603.jpg
Castrol BIKE POINT HUYỀN 465,"465 đường Huyền, Quận 465",,,Dịch vụ sửa xe và bán lẻ sản phẩm,"Castrol's products, phụ tùng và dịch vụ liên quan đến xe máy",Quận 465,465,đường Huyền,,,Castrol BIKE POINT HUYỀN 465 SỬA XE CHUYÊN NGHIỆP 465 HUYỀN 465,crop_images/GPAH9340.JPG.jpg_1730851050.5847926.jpg
Nhà Trước Hả Sương,,,,,,,,,,,NHÀ TRƯỚC HẢ SƯƠNG,crop_images/GPAH9340.JPG.jpg_1730851050.6039.jpg
Huyền 465,"465 Hưng Phú, Phường 9, Quận 8",0908.446.554,,Sửa xe chuyên nghiệp,"Động cơ, hệ thống phanh, hệ thống treo, lốp xe, dầu nhớt và các dịch vụ sửa chữa, bảo dưỡng xe đạp, xe máy và ô tô chuyên nghiệp",Quận 8,465,Hưng Phú,,Phường 9,"Huyền 465
SỬA XE CHUYÊN NGHIỆP
465 Hưng Phú, Phường 9, Quận 8 - ĐT: 0908.446.554",crop_images/GPAH9340.JPG.jpg_1730851050.6459527.jpg
NHA THUỐC HÀ SƯƠNG,"Đường Nguyễn Văn Linh, Quận 7, TP. Hồ Chí Minh",,,Dược phẩm và vật tư y tế,"Thuốc bảo vệ sức khỏe, thuốc điều trị bệnh tật, sản phẩm chăm sóc sức khỏe gia đình",Quận 7,,,TP. Hồ Chí Minh,,NHA THUỐC HÀ SƯƠNG,crop_images/GPAH9341.JPG.jpg_1730851128.5752304.jpg
Nhà Thuốc Tây Hà Sương,"463 Hưng Phú, Phường 8, Quận 8, Thành phố Hồ Chí Minh",,,"Thuốc Tây, Dược phẩm","Thuốc Tây nội, ngoại nhập",Quận 8,463,Hưng Phú,Thành phố Hồ Chí Minh,Phường 8,"NHÀ THUỐC TÂY
HÀ SƯƠNG
ĐẠT TIÊU CHUẨN GPP CHUYÊN BÁN LẺ THUỐC TÂY NỘI, NGOẠI NHẬP
463 HƯNG PHÚ - P. Q.8 - Q.8 TP. HỒ CHÍ MINH
DƯỢC SĨ BÙI THANH LÂN",crop_images/GPAH9341.JPG.jpg_1730851128.5820684.jpg
Nhà Thuốc Hà Sưễ,,,,"Dược phẩm, thuốc chữa bệnh","Thuốc, dược phẩm",,,,,,"NHÀ THUỐC
HÀ SƯỜNG",crop_images/GPAH9342.JPG.jpg_1730851279.9455006.jpg
Nhà Thuốc Tây Nguyễn Thị Ngọc Yên,"PTCM: DSDH, GPS: 1153/GP - 13191/DKKDD-HCM",,,Dược phẩm,"Thuốc, Thực Phẩm Chức Năng, Thiết Bị Dụng Cụ Y Tế, Dược Mỹ Phẩm, Sữa",,,,,,"NHÀ THUỐC TÂY
PTCM: DSDH. Nguyễn Thị Ngọc Yên
GPS: 1153/GP - 13191/DKKDD-HCM
PVKD: Bán lẻ Thuốc, Thực Phẩm Chức Năng, Thiết Bị Dụng Cụ Y Tế, Dược Mỹ Phẩm, Sữa Tô...
68% Vitamin Khoáng Chất Bỏ Não, Bỏ Mắt Tăng Dễ Kháng",crop_images/GPAH9345.JPG.jpg_1730851682.3361948.jpg
Heo Baby Bách Hóa Tổng Hợp,,,,"Bách hóa tổng hợp, bán sỉ và lẻ sản phẩm cao cấp cho trẻ em",Hàng cao cấp cho trẻ em,,,,,,"HEO BABY
BÁCH HÓA TỔNG HỢP
SỈ & LẺ HÀNG CAO CẤP",crop_images/GPAH9345.JPG.jpg_1730851682.3846977.jpg
Nhà Thuốc Tây Nguyễn Thị Ngọc Yên,"PTCM: DSDH, 1153/GPP - 13191/DKKDD-HCM",,,Dược,"Thuốc, Thực Phẩm Chức Năng, Thiết Bị Dụng Cụ Y Tế, Dược Mỹ Phẩm, Sữa Tả",,,,,,"NHÀ THUỐC TÂY
PTCM: DSDH. Nguyễn Thị Ngọc Yên
GPS: 1153/GPP - 13191/DKKDD-HCM
PVKD: Ban lẻ Thuốc, Thực Phẩm Chức Năng,
Thiết Bị Dụng Cụ Y Tế, Dược Mỹ Phẩm, Sữa Tả...",crop_images/GPAH9345.JPG.jpg_1730851682.4146662.jpg
Nhà Thuốc Tây Nguyễn Thị Ngọc Yến,"1153, Đường số, Quận Gò Vấp, TP.Hồ Chí Minh",,,Dược phẩm,"Thuốc Tây, Thực Phẩm Chức Năng, Thiết Bị Dụng Cụ Y Tế, Dược Mỹ Phẩm, Sữa Tăng Cân và Sữa Giảm Cân",Gò Vấp,1153,Đường số,TP.Hồ Chí Minh,,"NHÀ THUỐC TÂY
PTCM: DSDH. Nguyễn Thị Ngọc Yến
GPS: 1153/GP - 13191/DKKD-HCM
PVKD: Bán lẻ Thuật, Thực Phẩm Chức Năng, Thiết Bị Dụng Cụ Y Tế, Dược Mỹ Phẩm, Sữa T...",crop_images/GPAH9345.JPG.jpg_1730851682.4274414.jpg
WELL-CARE,,,,Sức khỏe và làm đẹp,"Thực phẩm chức năng, sản phẩm chăm sóc da, sản phẩm giảm cân, dịch vụ tư vấn dinh dưỡng và phục hồi sức khỏe",,,,,,CHỌN SỨC KHỎE CHỌN WELL-CARE,crop_images/GPAH9346.JPG.jpg_1730851897.1663284.jpg
Jno Coffee & Milk Tea,"449 Hưng Phú, Phường 9, Quận 8",0966 0000 69,,Cà phê và Trà sữa,Cửa hàng chuyên kinh doanh cà phê và trà sữa,Quận 8,449,Hưng Phú,,Phường 9,"Jno Coffee & Milk Tea
449 Hưng Phú, P.9, Q.8
DT: 0966 0000 69",crop_images/GPAH9347.JPG.jpg_1730852089.9606473.jpg
Uno Coffee & Milk Tea,,,,"Đồ uống (Cà phê, Trà sữa)",Cà phê và Trà sữa,,,,,,"Uno
COFFEE & MILK TEA",crop_images/GPAH9348.JPG.jpg_1730852243.5477405.jpg
Uno COFFEE & Milk Tea,"443 - 445 - 449 Hưng Phú, Phường 9, Quận 8",0966.0000.69,,,Cà phê và trà sữa,Quận 8,443 - 445 - 449,Hưng Phú,,Phường 9,"Uno COFFEE & Milk Tea
ĐC: 443 - 445 - 449 HƯNG PHÚ - P.9 - Q.8
DT: 0966.0000.69",crop_images/GPAH9348.JPG.jpg_1730852243.5722475.jpg
Ăn Vặt Benz Benz,"Đường XYZ, Thành phố HCM",,,Cung cấp các loại đồ ăn vặt phong phú và đa dạng cho khách hàng.,Món ăn vặt,,,,,,"ĂN VẬT
Benz Benz",crop_images/GPAH9351.JPG.jpg_1730852688.8054402.jpg
Bánh Canh Cua Đặc Biệt 439,,,,Bánh canh cua,"Bánh Canh Cua, Giỏ, Cua, Tháp Cẩm",,,,,,"Bánh Canh Cua
Giỏ 20K
Cua 25K
Tháp Cẩm
Không Gói 25K
Đặc Biệt
439",crop_images/GPAH9351.JPG.jpg_1730852688.8170824.jpg
A Rin Z,,,,"Bánh ngọt, đặc sản",Bánh Khoai Mỡ,,,,,,"A Rin Z
Bánh Khoai Mỡ
Ăn Là Ghiền",crop_images/GPAH9351.JPG.jpg_1730852688.823261.jpg
Ăn Vặt Benz Benz,,,,"Thực phẩm nhanh, đồ ăn vặt",Ăn vặt,,,,,,"ĂN VẬT
Benz Benz",crop_images/GPAH9351.JPG.jpg_1730852688.849684.jpg
GIẶT SẤY NHANH 435,Không có thông tin cụ thể về địa chỉ,,,Dịch vụ giặt sấy,Dịch vụ giặt sấy với 7 lần giặt thường và được tặng thêm 1 lần giặt miễn phí,,,,,,GIẶT SẤY NHANH 435 GIẶT 7 LẦN TĂNG 1 LẦN,crop_images/GPAH9352.JPG.jpg_1730852825.6081493.jpg
Giặt sấy nhanh 435,,,,Dịch vụ giặt là,Dịch vụ giặt sấy nhanh,,,,,,GIẶT SẤY NHANH 435 GIẶT 7 LẦN TĂNG 1 LẦN,crop_images/GPAH9352.JPG.jpg_1730852825.6194513.jpg
A Rin Z,,,,,,,,,,,A Rin Z,crop_images/GPAH9352.JPG.jpg_1730852825.6358523.jpg
Ăn Và Benz Benz,,,,Dịch vụ ẩm thực và dịch vụ ô tô,,,,,,,"ĂN VÀ
Benz Benz",crop_images/GPAH9352.JPG.jpg_1730852825.6497717.jpg
Giặt Sấy Nhanh 435,,,,Dịch vụ giặt sấy,"Dịch vụ giặt sấy đồ đạc, vải trang trí với khả năng giặt 7 lần và tăng 1 lần.",,,,,,GIẶT SẤY NHANH 435 GIẶT 7 LẦN TĂNG 1 LẦN,crop_images/GPAH9352.JPG.jpg_1730852825.657449.jpg
B'smart,Không rõ.,,,Thời trang và phụ kiện,Các sản phẩm thời trang và phụ kiện,,,,,,"B'smart
BE YOUR CHOICE",crop_images/GPAH9354.JPG.jpg_1730853149.067686.jpg
B'smart,,,,Cửa hàng thời trang,,,,,,,"B'smart
BE YOUR CHOICE",crop_images/GPAH9355.JPG.jpg_1730853382.3962798.jpg
Tấm Sơn Quán,,,,Quán ăn,"Bánh Bò Huế, Bánh Xào Cay, Lẩu Xí Quách",,,,,,"Tấm Sơn Quán
40K
Bánh Bò Huế
Bánh Xào Cay
Lẩu Xí Quách
THỜI GIAN BÁN
- 6h - 12h
- 16h - 22h
Kính Mật",crop_images/GPAH9356.JPG.jpg_1730853558.3379793.jpg
Tấm Sơn Quán,,,,Nhà hàng,"Bánh Bò Huế, Bánh Súp Cày, Lẩu Xí Quách",,,,,,"Tấm Sơn Quán
40K
Bánh Bò Huế
Bánh Súp Cày
Lẩu Xí Quách",crop_images/GPAH9356.JPG.jpg_1730853558.37584.jpg
TÂM SƠN QUÁN,,,,,"BÀI ĐỒ HẢI, BÀI XUÂN CAY, LẨU XÍ QUÁCH",,,,,,"TÂM SƠN QUÁN
40K
BÀI ĐỒ HẢI
BÀI XUÂN CAY
LẨU XÍ QUÁCH
THỜI GIẢN BÁN
- 6h - 12h
- 16h - 22h",crop_images/GPAH9356.JPG.jpg_1730853558.3910172.jpg
Chợ Hưng Phú,"423 Hưng Phú, Phường 9",032 944 3561,,"Thực phẩm, đồ dùng hằng ngày","Đồ tiêu dùng, thực phẩm, đồ gia dụng",Quận [không có thông tin cụ thể],,,,,"ĐC: 423 HƯNG PHÚ - PHƯỜNG 9 - QUẬN
ĐT: 032 944 3561",crop_images/GPAH9357.JPG.jpg_1730853775.876714.jpg
Quán Cơm Liên 417,417 [cần thêm thông tin về đường/phường/quận thành phố],,,Quán ăn,"Cơm Tấm vào buổi sáng, Cơm Bình Dân với giá 25,000 VNĐ vào buổi trưa",,,,,,"QUÁN CƠM LIÊN 417
SÁNG CƠM TẤM -...
TRƯA CƠM BÌNH DÂN 25K",crop_images/GPAH9359.JPG.jpg_1730854097.2104628.jpg
Quán Cơm Liên 417,"417 Hùng Phú, Phường 9, TP. Hồ Chí Minh",,,Quán ăn,"Sáng Cơm Tấm, Trưa Cơm Bình Dân",,,,TP. Hồ Chí Minh,Phường 9,"Quán Cơm Liên 417
Sáng Cơm Tấm - Trưa Cơm Bình Dân 25K
ĐC: 417 Hùng Phú P.9",crop_images/GPAH9359.JPG.jpg_1730854097.2288146.jpg
TẠP HÓA 413B,413B [Địa chỉ chi tiết không có thông tin],,,Cửa hàng thực phẩm,"Củ Kiệu, Dưa Món, Trái Heo Ngâm, Khô Gà, Tương Hột, Chao, Các loại gia vị",,,,,,"TẠP HÓA 413B
Sỉ lẻ: Củ Kiệu - Dưa Món (Chay - Mận)
- Trái Heo Ngâm - Khô Gà
- Tương Hột - Chao - Các Loại Gia Vị...",crop_images/GPAH9360.JPG.jpg_1730854345.064794.jpg
Tạp Hóa 413B,413B,,,"Tạp hóa, thực phẩm, gia vị và đồ khô","Củ Kiệu, Dưa Món (Chay - Mận), Tái Heo Ngâm, Khô Gà, Tương Hột, Chao, Các loại gia vị",,,,,,"TẠP HÓA 413B
Sỉ lẻ: Củ Kiệu - Dưa Món (Chay - Mận)
- Tái Heo Ngâm - Khô Gà
- Tương Hột - Chao - Các Loại Gia Vị...",crop_images/GPAH9360.JPG.jpg_1730854345.095936.jpg
TẠP HOA,413B,,,Sỉ lẻ các loại nhang đèn và giấy.,NHANG ĐÈN - GIẤY,,,,,,"TẠP HOA
413B
SỈ LẺ: NHANG ĐÈN - GIẤY CUNG CÁC LOẠI",crop_images/GPAH9360.JPG.jpg_1730854345.1133354.jpg
Sỉ lẻ Thực Phẩm Chay Món,,,,"Sỉ lẻ thực phẩm chay và món (có cả mặn và chay), đồ ngâm và khô như trái heo, gà, cung cấp các loại tương hột, chao, cùng đa dạng các loại gia vị khác.","Củ Kiệu, Dưa Món (Chay - Mặn), Trái heo ngâm, Khô gà, Tương hột, Chao, Các loại gia vị",,,,,,"Sỉ lẻ: Củ Kiệu - Dưa Món (Chay - Mặn)
- Trái heo ngâm - Khô gà
- Tương hột - Chao - Các loại gia vị...",crop_images/GPAH9360.JPG.jpg_1730854345.12345.jpg
Tạp hóa 413B,,,,Tạp hóa,"Sỉ lẻ: Củ Kiệu - Dưa món (chay - mận), Tai Heo Ngậm - Khô Gà, Tương Hột - Chao, Các loại gia vị",,,,,,"Tạp Hóa 413B
Sỉ Lẻ: Củ Kiệu - Dưa Món (Chay - Mận)
- Tai Heo Ngậm - Khô Gà
- Tương Hột - Chao - Các Loại Gia Vi...",crop_images/GPAH9361.JPG.jpg_1730854548.921143.jpg
Tạp Hóa 413B,Không có thông tin,,,"Thực phẩm, gia vị và đồ ăn chay","Củ kiệu, Dưa món (chay - mận), Tai heo ngậm, Khô gà, Tương hột, Chao, Các loại gia vị",,,,,,"Tạp Hóa 413B
Sỉ Lẻ: Củ Kiệu - Dưa Món (Chay - Mận)
- Tai Heo Ngậm - Khô Gà
- Tương Hột - Chao - Các Loại Gia Vi...",crop_images/GPAH9361.JPG.jpg_1730854548.9343379.jpg
YOGA Đáng Chuẩn,,,,"Dịch vụ và sản phẩm liên quan đến yoga, thực phẩm chức năng hoặc mỹ phẩm chăm sóc sức khỏe",Yến làm,,,,,,"YOGA
YẾN LÀM
Đáng Chuẩn
Eo Thân",crop_images/GPAH9367.JPG.jpg_1730855325.3887072.jpg
Kim Yến,7 - 45 Chỗ,,,Thuê xe du lịch,Dịch vụ cho thuê xe du lịch,,,,,,"THUÊ XE DU LỊCH
7 - 45 CHỖ
KIM YẾN",crop_images/GPAH9369.JPG.jpg_1730855725.7836306.jpg
Kim Yên - Dịch vụ thuê xe du lịch,Số 7 - 45,,,Dịch vụ thuê xe du lịch,"Dịch vụ cho thuê xe du lịch từ 7 - 45 chỗ cho các chuyến đi du lịch, công tác, thăm bạn bè, hoặc các sự kiện khác.",,,,,,"THUÊ XE DU LỊCH
7 - 45 CHỖ
KIM YÊN",crop_images/GPAH9369.JPG.jpg_1730855725.8125942.jpg
Com Chay An Lac,"123 Lê Lợi, Quận 1, TP. Hồ Chí Minh",,,"Cửa hàng cung cấp các món ăn chay, đồ uống chay, thực phẩm không sử dụng nguyên liệu từ động vật","Cơm chay, mì chay, phở chay, đồ uống chay",Quận 1,123,Lê Lợi,TP. Hồ Chí Minh,,CƠM CHAY,crop_images/GPAH9370.JPG.jpg_1730855856.8525412.jpg
Công ty TNHH Máy & Thiết Bị Công Nghiệp Đình Cao,,,,Máy và Thiết Bị Công Nghiệp,"Máy móc, thiết bị công nghiệp",,,,,,"CÔNG TY TNHH MÁY & THIẾT BỊ CÔNG NGHIỆP
ĐÌNH CAO",crop_images/GPAH9370.JPG.jpg_1730855856.874775.jpg
Cho Thuê Xe Du Lịch,,,,Dịch vụ cho thuê xe du lịch,Cho thuê xe du lịch từ 7 đến 45 chỗ,,,,,,"CHO THUÊ XE DU LỊCH
TỪ 7 - 45 CHỖ",crop_images/GPAH9370.JPG.jpg_1730855856.91066.jpg
Com Chay Suong Nguyet,"123 Nguyễn Văn Linh, Quận 7, TP.HCM",,,Nhà hàng chay,Cơm chay và các món chay khác,Quận 7,123,Nguyễn Văn Linh,TP.HCM,,CƠM CHAY,crop_images/GPAH9370.JPG.jpg_1730855856.9259362.jpg
Cơm Chay Hương Xuân,"123 đường ABC, Quận XYZ, Thành phố HCM",,,Nhà hàng chay,Cơm chay và các món chay khác,Quận XYZ,123,đường ABC,Thành phố HCM,,Cơm Chay,crop_images/GPAH9371.JPG.jpg_1730856039.1704645.jpg
Nhà Văn Hóa Phường 9,"Lửa 11, Phường 9",0903 300 402,,Văn Hóa và Giải Trí,"Đơn Ca Tài Tử, Cổ Nhạc, Khuê Võ, Salsa, Bacbata, Kizomra, Yoga, Mỹ Thuật, Thanh Nhạc, Tấn Nhạc",,,,,,"NHÀ VĂN HÓA PHƯỜNG 9
Chủ Lĩnh BỘ HOA SEN (Lửa 11)
ĐƠN CA TÀI TỬ - CỔ NHẠC
KHUÊ VÕ THỂ THAO
SALSA - BACBATA - KIZOMRA
YOGA
MÙA HIỆN ĐẠI
THANH NHẠC - TẤN NHẠC
Phòng Điện 0903 300 402
Time Hotels 0908 608 815",crop_images/GPAH9371.JPG.jpg_1730856039.1797385.jpg
Điểm Sinh Hoạt Văn Hóa Phường 9,"Phường 9, Thành phố, Tỉnh",,,Dịch vụ sinh hoạt văn hóa và giáo dục,"Các hoạt động văn hóa, giáo dục và giải trí",,,,,,ĐIỂM SINH HOẠT VĂN HÓA PHƯỜNG 9,crop_images/GPAH9371.JPG.jpg_1730856039.208031.jpg
Cơm Chay Nguyễn Văn Bình,"Số 10 Nguyễn Văn Bình, Quận 1, TP.Hồ Chí Minh",,,Nhà hàng cung cấp món ăn chay,"Cơm chay trọn bộ, lẩu chay, mì xào chay, bánh mì chay, nước ép trái cây tự nhiên",Quận 1,10,Nguyễn Văn Bình,TP.Hồ Chí Minh,,Cơm Chay,crop_images/GPAH9371.JPG.jpg_1730856039.2536285.jpg
Nhà Văn Hóa Phường 9,"Chu Lập Bí, Phường 9, Quận Lửa 11",Phạm Điện 0903 300 402,,"Nhà văn hóa, dịch vụ văn hóa nghệ thuật, thể thao và giáo dục","Đơn ca tài tử - cổ nhạc, Khuê vũ thể thao (Salsa, Bacbata, Kizomba, Yoga), Múa hiện đại, Thanh nhạc - Tấn nhạc",Lửa 11,,,,,"NHÀ VĂN HÓA PHƯỜNG 9
Chu Lập Bị HOA SEN (Lửa 11)
ĐƠN CA TÀI TỬ - CỔ NHẠC
KHUÊ VÕ THỂ THAO
SALSA - BACBATA - KIZOMRA
YOGA
MÙA HIỆN ĐẠI
THANH NHẠC - TẤN NHẠC
Phạm Điện 0903 300 402
Time Hotels 0908 608 815",crop_images/GPAH9371.JPG.jpg_1730856039.2617545.jpg
Cơm Chay An Nhơn,"Số 10, Phố Hàng Bồ",,,Nhà hàng chay,Cơm chay,Quận Hoàn Kiếm,,,Hà Nội,,Cơm Chay,crop_images/GPAH9371.JPG.jpg_1730856039.2692752.jpg
Điểm Sinh Hoạt Văn Hóa Phường 9,"393 - 395 Hùng Phú, Phường 9, Quận 8",,,Văn hóa và sinh hoạt cộng đồng,,Quận 8,,,,Phường 9,"ĐIỂM SINH HOẠT VĂN HÓA PHƯỜNG 9
ĐC: 393 - 395 HÙNG PHÚ - PHƯỜNG 9 - QUẬN 8",crop_images/GPAH9372.JPG.jpg_1730856331.406982.jpg
Quán Chay,"123 Đường Nguyễn Văn Linh, Quận 1, TP.HCM",,,Nhà hàng chay,"Thực đơn chay đa dạng: mì xào chay, cơm chiên chay, bún bò chay, phở chay...",Quận 1,123,Đường Nguyễn Văn Linh,TP.HCM,,Quán Chay,crop_images/GPAH9372.JPG.jpg_1730856331.424907.jpg
Điểm Sinh Hoạt Văn Hóa Phường 9,"393 - 395 Hùng Phủ, Phường 9, Quận 8",,,Dịch vụ sinh hoạt văn hóa,"Cung cấp các hoạt động văn hóa, giáo dục và giải trí cho cư dân trong khu vực, bao gồm các sự kiện, chương trình văn hóa, hội thảo, hội chợ, trưng bày nghệ thuật và các hoạt động văn hóa khác.",Quận 8,,,,,"ĐIỂM SINH HOẠT VĂN HÓA PHƯỜNG 9
ĐC: 393 - 395 HÙNG PHỦ - PHƯỜNG 9 - QUẬN 8",crop_images/GPAH9372.JPG.jpg_1730856331.4522557.jpg
Nhà Văn Hóa Phường 9,"Chợ Lớn, 64 Hoa Sen (Lãnh 1), Phường 9, Quận...","{'Phan Đình': '0903 380 422', 'Thiền Môn': '0985 008 816'}",,Nghệ thuật và thể dục,"{'1': 'Đơn ca tài từ - Cổ nhạc', '2': 'Khiêu vũ thể thao (Salsa, Bachata, Kizomara)', '3': 'Yoga', '4': 'Múa hiện đại', '5': 'Thanh nhạc - Tần nhạc'}",,,,,,"NHÀ VĂN HÓA PHƯỜNG 9
Chợ Lớn 64 Hoa Sen (Lãnh 1)
ĐƠN CA TÀI TỪ - CỔ NHẠC
KHIỂU VŨ THỂ THAO
SALSA - BACHATA - KIZOMARA
YOGA
MUA HIỆN ĐẠI
THANH NHẠC - TẦN NHẠC
Phan Đình 0903 380 422
Thiền Môn 0985 008 816",crop_images/GPAH9372.JPG.jpg_1730856331.4666562.jpg
Điểm sinh hoạt văn hóa phường 9,"393 - 395 Hùng Phú, Phường 9, Quận 8",,,Dịch vụ sinh hoạt văn hóa,"Cung cấp các hoạt động về văn hóa, giáo dục, giải trí, và các sự kiện văn hóa khác cho cộng đồng tại Phường 9, Quận 8",Quận 8,393 - 395,Hùng Phú,Hồ Chí Minh,Phường 9,"Điểm sinh hoạt văn hóa phường 9
ĐC: 393 - 395 Hùng Phú - Phường 9 - Quận 8",crop_images/GPAH9372.JPG.jpg_1730856331.4738462.jpg
BÒ SỐT HÀU - CHÍ NHÁNH 7,"391 Hưng Phú, Phường 9, Quận 8, Thành phố Hồ Chí Minh",09 3339 7557 - 091 608 1737,,"Đồ ăn nhanh, món ăn tự chọn",Bò Sốt Hàu,Quận 8,391,Hưng Phú,Thành phố Hồ Chí Minh,Phường 9,"Bò Sốt Hàu
CHÍ NHÁNH 7
391 HƯNG PHÚ, P.9 - Q.8
DT: 09 3339 7557 - 091 608 1737",crop_images/GPAH9373.JPG.jpg_1730856553.1778908.jpg
Bò Sốt Hàu - Chi Nhánh 7,"391 Hưng Phú, Phường 9, Quận 8, Thành phố Hồ Chí Minh",09 3339 7557 - 091 608 1737,,"Các món ăn chế biến từ thịt bò với sốt hàu, đồ ăn nhẹ",Bò sốt hàu,Quận 8,391,Hưng Phú,Thành phố Hồ Chí Minh,Phường 9,"Bò Sốt Hàu
CHÍ NHÁNH 7
391 HƯNG PHÚ, P.9 - Q.8
DT: 09 3339 7557 - 091 608 1737",crop_images/GPAH9373.JPG.jpg_1730856553.2146788.jpg
Bò Sốt Hàu - Chi Nhánh 7,"391 Hưng Phú, Phường 9, Quận 8, Thành phố Hồ Chí Minh",09 3339 7557 - 091 608 1737,,Nhà hàng,Bò sốt hàu,Quận 8,391,Hưng Phú,Thành phố Hồ Chí Minh,Phường 9,"Bò Sốt Hàu
CHI NHÁNH 7
391 HƯNG PHÚ, P.9 - Q.8
DT: 09 3339 7557 - 091 608 1737",crop_images/GPAH9373.JPG.jpg_1730856553.2466564.jpg
Bò Sốt Hầu - Chi nhánh 7,"391 Hưng Phú, Phường 9, Quận 8",09 3339 7557 - 091 608 1737,,,Bò Sốt Hầu,Quận 8,391,Hưng Phú,,Phường 9,"Bò Sốt Hầu
Chi nhánh 7
391-HƯNG PHÚ, P.9 - Q.8
DT: 09 3339 7557 - 091 608 1737",crop_images/GPAH9374.JPG.jpg_1730856657.090124.jpg
Apollo English,,,,Trung tâm tiếng Anh,Dịch vụ học tiếng Anh,,,,,,"APOLLO ENGLISH
COME BETTER",crop_images/GPAH9375.JPG.jpg_1730856717.0127664.jpg
Apollo English,,,,Dịch vụ giáo dục,Tiếng Anh,,,,,,"APOLLO ENGLISH
COME BETTER",crop_images/GPAH9376.JPG.jpg_1730856755.4100182.jpg
Giấc Mơ Sữa Việt,"Đường XYZ, quận ABC, thành phố XYZ",,,Cửa hàng chuyên về sản phẩm sữa,"Sữa tươi, sữa đặc, kem, sữa chua, sữa hạt, sữa bơ và các sản phẩm liên quan",ABC,,,XYZ,,Giấc mơ sữa Việt,crop_images/GPAH9378.JPG.jpg_1730857059.9399183.jpg
Hana Beauty,,,,Mỹ phẩm,"Nước biển, chăm sóc da",,,,,,"Hana Beauty
Nước biển - Mỹ Phẩm
Chăm Sóc Ba",crop_images/GPAH9378.JPG.jpg_1730857059.9749846.jpg
Giấc Mơ Sữa Việt,"Đường 123, Quận ABC, Thành phố XYZ",,,Cửa hàng thực phẩm và đồ uống,"Sữa tươi, sữa đặc sấy, sữa chua tự làm, trà sữa, cà phê sữa đá, đồ uống có sữa khác",ABC,123,Đường 123,XYZ,,Giấc mơ sữa Việt,crop_images/GPAH9378.JPG.jpg_1730857060.0174558.jpg
Hana Beauty Spa,"8 379 Hưng Phú, Phường 9, Quận 8, TP.Hồ Chí Minh",0822 896 789,,Salon làm đẹp và spa,"Nails, Gội đầu, Chăm sóc da, Makeup, Mi",Quận 8,8,Hưng Phú,TP.Hồ Chí Minh,Phường 9,"Hana Beauty Spa
Nails - Gội đầu - Chăm sóc da - MAKEUP - MI
8 379 Hưng Phú - P.9 - Q.8 - TP.HCM
0822 896 789",crop_images/GPAH9379.JPG.jpg_1730857282.3907473.jpg
Hana Beauty Spa,"8/379 Hưng Phú, Phường 9, Quận 8, TP.Hồ Chí Minh",0822 896 789,,,"Nails, Gội đầu, Chăm sóc da, Makeup, Mi",Quận 8,8,Hưng Phú,TP.Hồ Chí Minh,Phường 9,"Hana Beauty Spa
Nails - Gội đầu - Chăm sóc da - MAKEUP - MI
8 379 Hưng Phú - P.9 - Q.8 - TP.HCM
0822 896 789",crop_images/GPAH9379.JPG.jpg_1730857282.4731574.jpg
Hana Beauty Spa,"8/379 Hưng Phú, Phường 9, Quận 8, Thành phố Hồ Chí Minh",0822 896 789,,"Salon làm nails, salon gội đầu, dịch vụ chăm sóc da, trang điểm và dịch vụ mi","Nails, Gội đầu, Chăm sóc da, MAKEUP, MI",Quận 8,8,Hưng Phú,Thành phố Hồ Chí Minh,Phường 9,"Hana Beauty Spa
Nails - Gội đầu - Chăm sóc da - MAKEUP - MI
8 379 Hưng Phú - P.9 - Q.8 - TP.HCM
0822 896 789",crop_images/GPAH9379.JPG.jpg_1730857282.501362.jpg
VẬT LIỆU VÁY ĐỒNG,THÀNH HÙNG II,,,"Vải váy, vật liệu may váy, phụ kiện trang trí váy","Vải váy, vật liệu may váy, phụ kiện trang trí váy",,,,,,"CỬA HÀNG VẬT LIỆU VÁY ĐỒNG
THÀNH HÙNG II",crop_images/GPAH9380.JPG.jpg_1730857523.0510545.jpg
CỬA HÀNG VẬT LIỆU VÁY ĐỒNG THÀNH HÙNG II,,,,,"Vật liệu may váy, váy đồng",,,,,,"CỬA HÀNG VẬT LIỆU VÁY ĐỒNG
THÀNH HÙNG II",crop_images/GPAH9380.JPG.jpg_1730857523.1153245.jpg
Nhóm Trẻ,"375 Hùng Phú, Phường 9, Quận 8, Tp. Hồ Chí Minh",0948663674,,Sản phẩm và dịch vụ cho trẻ em,"Quần áo, đồ chơi, sách vở, đồ dùng học tập và các sản phẩm khác dành cho trẻ em",Quận 8,375,Hùng Phú,Tp. Hồ Chí Minh,Phường 9,"ỦY BAN NHÂN DÂN P.9 - Q.8
NHÓM TRẺ
375
QĐTL: 176/QĐ-UBND CẤP NGÀY 8/7/2018
DT: 0948663674
375 HÙNG PHÚ PHƯỜNG 9 - QUẬN 8",crop_images/GPAH9381.JPG.jpg_1730857739.1254418.jpg
Nhóm Trẻ,"375 Hùng Phú, Phường 9, Quận 8, TP.HCM",0948663674,,Cửa hàng dành cho trẻ em,"Quần áo, đồ chơi, sách vở, đồ dùng học tập và các sản phẩm khác phục vụ cho nhu cầu của trẻ em",Quận 8,375,Hùng Phú,TP.HCM,Phường 9,"ỦY BAN NHÂN DÂN P.9 - Q.8
NHÓM TRẺ
375
QĐTL: 176/QĐ-UBND CẤP NGÀY 8/7/2018
DT: 0948663674
375 HÙNG PHÚ PHƯỜNG 9 - QUẬN 8",crop_images/GPAH9381.JPG.jpg_1730857739.1722152.jpg
Nau,,,,Dịch vụ sửa chữa xe ga và xe số chuyên nghiệp,Sửa chữa xe ga và xe số,,,,,,"Nau
CHUYÊN SỬA XE GA - XE SỐ",crop_images/GPAH9383.JPG.jpg_1730858015.7233531.jpg
NÂU,,,,Dịch vụ sửa chữa xe ga và xe số,,,,,,,"NÂU
CHUYÊN SỬA XE GA - XE SỐ",crop_images/GPAH9383.JPG.jpg_1730858015.7459176.jpg
NÂU,,,,Dịch vụ sửa chữa xe ga và xe số,Sửa chữa xe ga và xe số,,,,,,"NÂU
CHUYÊN SỬA XE GA - XE SỐ",crop_images/GPAH9384.JPG.jpg_1730858229.928578.jpg
NÂU,,,,Dịch vụ sửa chữa xe,Sửa chữa xe ga và xe số,,,,,,"NÂU
CHUYÊN SỬA XE GA - XE SỐ",crop_images/GPAH9384.JPG.jpg_1730858229.962211.jpg
NAU,,,,Dịch vụ sửa chữa xe ga và xe số,Sửa chữa xe ga và xe số,,,,,,"NAU
CHUYÊN SỬA XE GA - XE SỐ",crop_images/GPAH9384.JPG.jpg_1730858229.9884007.jpg
BÁNH MÌ HÀ NỘI HƯNG THỦY,"363 Hưng Phú, Phường 9, Quận 8",0947.917.747 - 0972.265.440,,"Bánh Mì, Thịt Người, Bánh Quy (Bánh Pia), Deli Shop","Giò Cha, Thịt Người, Chả Bò, Bánh Mì Sốc Trắng, Bánh Pia",Quận 8,363,Hưng Phú,,Phường 9,"BÁNH MÌ HÀ NỘI
HƯNG THỦY
GIÒ CHA
THỊT NGƯỜI
CHÀ BÓNG
BÁNH MÌ SỐC TRẮNG
ĐẠI LÝ
BÁNH PIA
DC: 363 Hưng Phú, Phường 9, Quận 8
DT: 0947.917.747 - 0972.265.440",crop_images/GPAH9386.JPG.jpg_1730858545.857141.jpg
Bánh Mì Hà Nội Hưng Thủy,Hưng Thủy,,,Bánh mì theo phong cách Hà Nội,Bánh mì,,,,,,"BÁNH MÌ HÀ NỘI
HƯNG THỦY",crop_images/GPAH9386.JPG.jpg_1730858545.9587262.jpg
ĐẠI LÝ GẠO HỒNG DUYÊN,"359 Hưng Phú, Phường 9, Quận 8",3859.7096 - 0937.617.031 - 2237.4328 - 0914.197.637,,"Chuyên kinh doanh các loại gạo, chất lượng giáo bằng, tận nơi, uy tín","GẠO, TẤM, NẾP",Quận 8,359,Hưng Phú,,Phường 9,"ĐẠI LÝ GẠO HỒNG DUYÊN
CHUYÊN KINH DOANH CÁC LOẠI
GẠO - TẤM - NẾP
GIÁO BẰNG TÂN NƠI - UY TÍN CHẤT LƯỢNG
DC: 359 HƯNG PHÚ - P.9 - Q.8
DT: 3859.7096 - 0937.617.031 - 2237.4328 - 0914.197.637",crop_images/GPAH9387.JPG.jpg_1730858723.3231916.jpg
Bùa Xe,310 [đường không rõ],,,Dịch vụ ô tô,Dịch vụ thay nhớt sử dụng dầu nhớt Castrol,,,,,,"BÙA XE
310
THAY NHỚT
CASTROL",crop_images/GPAH9388.JPG.jpg_1730858924.1783237.jpg
Cửa Hàng Nhật Bách,"357 Hưng Phú, Phường 8",0907 542 857,,Cửa hàng đồ nhập khẩu,"Đồ gia dụng, thực phẩm, mỹ phẩm, đồ chơi, sách báo",Quận B,,,Thành phố Hồ Chí Minh,,"CỬA HÀNG
NHẬT BẠCH
357 HƯNG PHÚ, P.8,
Q.B. TP.HCM
ĐIỆN THOẠI: 0907 542 857",crop_images/GPAH9388.JPG.jpg_1730858924.190415.jpg
Bảo Xe,310,,,Dịch vụ ô tô,Dịch vụ thay nhớt sử dụng dầu nhớt Castrol,,,,,,"BẢO XE
310
THAY NHỚT
CASTROL",crop_images/GPAH9388.JPG.jpg_1730858924.2430115.jpg
Cửa hàng Nhật Bách,"357 Hùng Phú, Phường 8, Quận Bình Thạnh, Thành phố Hồ Chí Minh",0907 542 857,,Cửa hàng nhập khẩu,Hàng hóa Nhật Bản,Bình Thạnh,357,Hùng Phú,Hồ Chí Minh,8,"CỬA HÀNG NHẬT BẠCH
357 HÙNG PHÚ, P.8
Q.B. TP.HCM
ĐIỆN THOẠI: 0907 542 857",crop_images/GPAH9388.JPG.jpg_1730858924.2533643.jpg
Rửa Xe Chuyên Nghiệp Castrol,"353 Hưng Phú, Phường 9, Quận 8, TP. Hồ Chí Minh",,,Dịch vụ rửa xe chuyên nghiệp,Rửa xe 310,Quận 8,,Hưng Phú,TP. Hồ Chí Minh,Phường 9,"Castrol
RỬA XE CHUYÊN NGHIỆP
RỬA XE 310
Đc: 353 Hưng Phú, P.9, Quận 8",crop_images/GPAH9389.JPG.jpg_1730859143.5957265.jpg
Sửa Xe Bình Phước,"351 Hưng Phú, Phường 9, Quận 8, TP. Hồ Chí Minh",0902 436 096,,Dịch vụ ô tô và xe máy,"Bảo trì - bảo dưỡng, tân trang xe tay ga",Quận 8,351,Hưng Phú,TP. Hồ Chí Minh,Phường 9,"SỬA XE
BÌNH PHƯỚC
CHUYÊN BẢO TRÌ - BẢO DƯỠNG
TÂN TRANG CÁC LOẠI XE TAY GA
VÀ HONDA - YAMAHA - SUZUKI
DT: 0902 436 096
351 Hưng Phú, P.9, Q.8",crop_images/GPAH9389.JPG.jpg_1730859143.6261475.jpg
SỬA XE BÌNH PHƯỚC,"351 Hưng Phú, P.9, Q.8",0902 436 096,,Dịch vụ sửa chữa xe,"Dịch vụ bảo trì, bảo dưỡng xe; Dịch vụ tân trang xe tay ga Honda, Yamaha, Suzuki",Quận 8,351,Hưng Phú,,Phường 9,"SỬA XE
BÌNH PHƯỚC
CHUYÊN BẢO TRÌ - BẢO DƯỠNG
TÂN TRANG CÁC LOẠI XE TAY GA
VÀ HONDA - YAMAHA - SUZUKI
351 Hưng Phú, P.9, Q.8
DT: 0902 436 096",crop_images/GPAH9389.JPG.jpg_1730859143.6687815.jpg
Castrol,"353 Hưng Phú, Phường 9, Quận 8",,,Dịch vụ ô tô,Dịch vụ rửa xe 310,Quận 8,,,,Phường 9,"Castrol
RỬA XE CHUYÊN NGHIỆP
RỬA XE 310
Đc: 353 Hưng Phú, P.9, Quận 8",crop_images/GPAH9389.JPG.jpg_1730859143.6852188.jpg
Phòng Khám Nhi Đồng,,,,Phòng khám chuyên khoa nhi đồng,Dịch vụ chăm sóc sức khỏe cho trẻ em,,,,,,"PHÒNG KHÁM
NHI ĐỒNG",crop_images/GPAH9390.JPG.jpg_1730859337.15838.jpg
Salon Minh Đức,,,,Dịch vụ làm tóc tại salon,Hớt Tóc Model,,,,,,"Salon
Minh Đức
Hớt Tóc Model",crop_images/GPAH9390.JPG.jpg_1730859337.1652045.jpg
Minh Đức,Bình Dân,,,Hớt Tóc,Dịch vụ cắt tóc,,,,,,"Minh Đức
Hớt Tóc
Bình Dân",crop_images/GPAH9391.JPG.jpg_1730859529.5584066.jpg
Salon Minh 1,Hớt Tóc N,,,Salon làm tóc,Dịch vụ làm tóc và làm đẹp,,,,,,"Salon
Minh 1
Hớt Tóc N",crop_images/GPAH9391.JPG.jpg_1730859529.5823898.jpg
KINH ĐỨC,BÌNH DÂN,,,HỚT TÓC,,,,,,,"KINH ĐỨC
HỚT TÓC
BÌNH DÂN",crop_images/GPAH9391.JPG.jpg_1730859529.592014.jpg
Trường,Không có thông tin,,,Thực phẩm,"Thực phẩm an toàn, tươi ngon, tiện lợi",,,,,,"an toàn. tiện lợi. tươi ngon
TRƯỜNG
CỬA HÀNG THỰC PHẨM AN TOÀN",crop_images/GPAH9392.JPG.jpg_1730859653.3848999.jpg
COOP FOOD,Bình ổn thị trường,,,Thực phẩm và đồ uống,"Thực phẩm an toàn, tự hào hạnh",,,,,,"COOP FOOD
an toàn
TỰ HÀO HẠNH
CỬA HÀNG BÌNH ỔN THỊ TRƯỜNG",crop_images/GPAH9393.JPG.jpg_1730859752.9460206.jpg
Coop Food,Nam cửa hàng bình ổn thị trường,,,Thực phẩm và đồ uống,Thực phẩm và đồ uống,,,,,,"Coop Food
an toàn
Tự hào
Nam cửa hàng bình ổn thị trường",crop_images/GPAH9393.JPG.jpg_1730859753.1275506.jpg
BÌNH ỔN THỊ TRƯỜNG,,,,Hàng Việt Nam tự hào,"Sản phẩm thị trường hoàn toàn ổn định, hợp chuẩn chất lượng, là những sản phẩm của Việt Nam giới thiệu và phân phối",,,,,,TỰ HÀO HÀNG VIỆT NAM CỬA HÀNG BÌNH ỔN THỊ TRƯỜNG,crop_images/GPAH9394.JPG.jpg_1730859837.8022773.jpg
Coop Food,Bình ổn Thị trường,,,Thực phẩm và thực phẩm chế biến,Hàng Việt Nam,,,,,,"COOP FOOD
TỰ HÀO HÀNG VIỆT NAM CỬA HÀNG BÌNH ỔN THỊ TRƯỜNG",crop_images/GPAH9394.JPG.jpg_1730859837.846109.jpg
BÌNH ỔN THỊ TRƯỜNG,Tự hào hàng Việt Nam,,,"Hàng tiêu dùng, quà lưu niệm, đồ handmade",Hàng Việt Nam chất lượng cao,,,,,,TỰ HÀO HÀNG VIỆT NAM CỬA HÀNG BÌNH ỔN THỊ TRƯỜNG,crop_images/GPAH9394.JPG.jpg_1730859837.9329107.jpg
Tiên Việc Công Lộng,"Thành phố Hồ Chí Minh, Việt Nam",,,,,,,,Thành phố Hồ Chí Minh,,"TIÊN VIỆC CÔNG LỘNG
HÀ NỘI PHỐ HỒ CHÍ MINH
15/7/1968 - 10/10/1968
Thành phố Hồ Chí Minh City",crop_images/GPAH9429.JPG.jpg_1730862240.8976514.jpg
Viện Y Tế Công Cộng,Thành phố Hồ Chí Minh,,,Dịch vụ y tế công cộng,"Dịch vụ chăm sóc sức khỏe, khám bệnh, cấp cứu, tiêm chủng và các dịch vụ y tế khác do viện cung cấp.",,,,,,"BỘ Y TẾ
VIỆN Y TẾ CÔNG CỘNG
THÀNH PHỐ HỒ CHÍ MINH",crop_images/GPAH9441.JPG.jpg_1730863097.3856974.jpg
Viện Y Tế Công Nghệ - Phòng Phát Triển,Bộ Y Tế,,,Dịch vụ y tế và công nghệ liên quan,Dịch vụ chăm sóc sức khỏe và phát triển công nghệ trong lĩnh vực y tế,,,,,,"BỘ Y TẾ
VIỆN Y TẾ CÔNG NGHỆ
PHÒNG PHÁT TRIỂN",crop_images/GPAH9441.JPG.jpg_1730863097.399122.jpg
Cửa hàng Nhân Hạnh,"157A Hưng Phú, P.8, Q.8, TP.Hồ Chí Minh",0973.533.327,,"Điện - nước gia dụng, đồ sắt, ống nước",,Quận 8,157A,Hưng Phú,TP.Hồ Chí Minh,Phường 8,"Cửa hàng Nhân Hạnh
Chuyên kinh doanh: điện - nước gia dụng
đồ sắt - ống nước các loại
ĐC: 157A Hưng Phú, P.8, Q.8, TP.HCM - ĐT: 0973.533.327",crop_images/GPAH9445.JPG.jpg_1730863888.6007402.jpg
Cửa hàng Nhân Hạnh,"157A Hưng Phú, Phường 8, Quận 8, Thành phố Hồ Chí Minh",0907.538.327,,bán lẻ,"Điện - nước gia dụng, đồ sắt, ống nước các loại",Quận 8,157A,Hưng Phú,Thành phố Hồ Chí Minh,Phường 8,"CỬA HÀNG
NHÂN HẠNH
Chuyên kinh doanh: điện - nước gia dụng
đồ sắt - ống nước các loại
ĐC: 157A Hưng Phú, P.8, Q.8, TP.HCM - ĐT: 0907.538.327",crop_images/GPAH9445.JPG.jpg_1730863888.6208806.jpg
Điện Quan,,,,Cửa hàng điện tử,"Thiết bị điện tử, phụ kiện",,,,,,"Điện quan
Ở đâu có điện, ở đó có điện quan",crop_images/GPAH9445.JPG.jpg_1730863888.6346283.jpg
Điện Quan,,,,Cửa hàng thiết bị điện,"Thiết bị điện, linh kiện điện, đèn LED và các sản phẩm điện khác",,,,,,"Điện quan
Ở đâu có điện, ở đó có điện quan",crop_images/GPAH9445.JPG.jpg_1730863888.6846342.jpg
Tìm Về Bên Trong Bạn,,,,"Sách, đồ dùng cá nhân, sản phẩm thể chất và tinh thần","Sách tự luyện, không gian lưu trữ tự nhiên, sản phẩm tăng cường sức khỏe và sự phát triển cá nhân",,,,,,Tìm Về Bên Trong Bạn,crop_images/GPAH9447.JPG.jpg_1730864343.1229165.jpg
Phố 768,"Đường số, Quận 8",,,,,Quận 8,,,,,"768
Phố - ĐS - Q.8",crop_images/GPAH9447.JPG.jpg_1730864343.1628203.jpg
SỬA XE CHUYÊN NGHIỆP,,0933.40.41.47 - 0989.969.919,,,Sửa chữa xe ga,,,,,,"SỬA XE CHUYÊN NGHIỆP
CHUYÊN XE GA]
0933.40.41.47 - 0989.969.919",crop_images/GPAH9448.JPG.jpg_1730864459.6187105.jpg
Cafe 168,Im Về Bên Trong Bạn,,,Quán cafe,Đồ uống và thức ăn,,,,,,"Cafe 168
Im Về Bên Trong Bạn",crop_images/GPAH9448.JPG.jpg_1730864459.6717498.jpg
Light Yoga,,,,Yoga Studio,"Yoga classes, yoga mats, yoga blocks, yoga straps, yoga clothing, yoga books, workshops",,,,,,Light Yoga,crop_images/GPAH9448.JPG.jpg_1730864459.6851916.jpg
TUNG 345,,0933.40.41.47 - 0989.969.919,,Sửa chữa xe ga,Dịch vụ sửa chữa xe chuyên nghiệp,,,,,,"TUNG 345
SỬA XE CHUYÊN NGHIỆP
CHUYÊN XE GA
0933.40.41.47 - 0989.969.919",crop_images/GPAH9448.JPG.jpg_1730864459.6908405.jpg
Trung 345 Sửa Xe Chuyên Nghiệp,"143A Hùng Phú, Quận 4",,,Chuyên sửa xe ga,Sửa chữa xe chuyên nghiệp,Quận 4,143A,Hùng Phú,,,"TRUNG 345
SỬA XE CHUYÊN NGHIỆP
CHUYÊN XE GA
143A HÙNG PHÚ - Q.4",crop_images/GPAH9449.JPG.jpg_1730864524.8063407.jpg
Trường Mầm Non Vành Khuyên,"121 - 123 - 125 Hưng Phú, Phường 8, Quận 8, Thành phố Hồ Chí Minh",08.38597401,,Trường mầm non,Dịch vụ giáo dục trẻ em mầm non,Quận 8,121 - 123 - 125,Hưng Phú,Thành phố Hồ Chí Minh,Phường 8,"TRƯỜNG MẦM NON VÀNH KHUYÊN
Đ/c: 121 - 123 - 125 HƯNG PHÚ P.8 - Q.8 T.HCM
DT: 08.38597401",crop_images/GPAH9458.JPG.jpg_1730865410.9517772.jpg
Trường Mầm Non Vành Khuyên,"121 - 123 - 125 Hưng Phú, Phường 8, Quận 8, TP.Hồ Chí Minh",08.38597401,,Trường Mầm Non,Giáo dục mầm non,Quận 8,121 - 123 - 125,Hưng Phú,TP.Hồ Chí Minh,Phường 8,"TRƯỜNG MẦM NON VÀNH KHUYÊN
Đ/C: 121 - 123 - 125 HƯNG PHÚ P.8 - Q.8 T.HCM
DT: 08.38597401",crop_images/GPAH9458.JPG.jpg_1730865410.997195.jpg
Vanh Khuyên,,,,Phụ kiện và trang sức,"Vanh, Khuyên",,,,,,VANH KHUYÊN,crop_images/GPAH9461.JPG.jpg_1730865819.0215.jpg
B'smart,,,,Thời trang và phụ kiện,Đồ thời trang và phụ kiện,,,,,,"B'smart
BE YOUR CHOICE",crop_images/GPAH9462.JPG.jpg_1730866117.007641.jpg
B'smart,,,,Thời trang và phong cách cá nhân,"Quần áo, phụ kiện thời trang",,,,,,"B'smart
BE YOUR CHOICE",crop_images/GPAH9462.JPG.jpg_1730866117.037932.jpg
GIẶT HẤP ƯU,,,,Dịch vụ giặt hấp và ủi đồ,Dịch vụ giặt ủi nhanh chóng và tiện lợi,,,,,,GIẶT HẤP ƯU,crop_images/GPAH9464.JPG.jpg_1730866534.9631667.jpg
Express Laundry,Giát sấy nhanh,,,Dịch vụ giặt sấy nhanh,Dịch vụ giặt ủi nhanh cho quần áo và các loại vải khác,,,,,,"GIÁT SẤY NHANH
Express Laundry",crop_images/GPAH9465.JPG.jpg_1730866705.5960298.jpg
Express Laundry,,,,Dịch vụ giặt sấy nhanh,Dịch vụ giặt sấy nhanh,,,,,,"GIÁT SẤY NHANH
Express Laundry",crop_images/GPAH9465.JPG.jpg_1730866705.664164.jpg
Hót Tóc Nam Minh Trí (Vân),"101 Hưng Phú, Quận 8, TP. Hồ Chí Minh",0919 07 87 49,,Salon tóc nam,Dịch vụ cắt tóc nam với phong cách hiện đại và phục vụ theo mô hình bình dân,Quận 8,101,Hưng Phú,TP. Hồ Chí Minh,,"HÓT TÓC NAM
MINH TRÍ (VÂN)
ĐC: 101 HƯNG PHÚ, Q.8 - ĐT: 0919 07 87 49
Bình Dân",crop_images/GPAH9466.JPG.jpg_1730867060.4591238.jpg
Mắt kính Minh Triết,"99 Hùng Phủ, Phường 8, Quận 8",0938 2712 - 0934 843 694,,Cửa hàng mắt kính,Mắt kính,Quận 8,99,Hùng Phủ,,Phường 8,"Mắt kính Minh Triết
99 HÙNG PHỦ - P.8 - Q.8
DT: 0938 2712 - 0934 843 694",crop_images/GPAH9466.JPG.jpg_1730867060.5146353.jpg
Hoành Thánh Hủ Tiếu - Mì,,,,Nhà hàng,"Hủ tiếu, mì, bánh canh, nui",,,,,,"HỦ TIẾU - MÌ
HOÀNH THÁNH
BÁNH CANH - NUI
20K - 25K - 30K",crop_images/GPAH9468.JPG.jpg_1730867573.917851.jpg
Hủ Tiếu - Mì Hoành Thánh,,,,"Thực phẩm, đồ ăn mang đi","Hủ Tiếu, Mì Hoành Thánh, Bánh Canh",,,,,,Hủ Tiếu - Mì Hoành Thánh Bánh Canh - Nui 20K - 25K - 30K,crop_images/GPAH9468.JPG.jpg_1730867573.9517488.jpg
Cafe AB,Hồ Chí Minh,,,Cafe,Bánh Canh - Nui,,,,,,"Cafe AB
Hồ Chí Minh
Bánh Canh - Nui",crop_images/GPAH9468.JPG.jpg_1730867573.9680886.jpg
Hoành Thánh,,,,,"Hủ tiếu, mì, bánh canh, nui",,,,,,"HÙ TIẾU - MÌ
HOÀNH THÁNH
BÁNH CANH - NUI
20K - 25K - 30K",crop_images/GPAH9469.JPG.jpg_1730867822.1723776.jpg
Hoành Thánh - Bánh Canh - Nui,,,,Thực phẩm chế biến sẵn,"Hủ tiếu, mì, bánh canh, nui",,,,,,"HÙ TIẾU - MÌ
HOÀNH THÁNH
BÁNH CANH - NUI
20K - 25K - 30K",crop_images/GPAH9469.JPG.jpg_1730867822.1782954.jpg
Nhà Thuốc Tây Ngọc Dung,"956 Hùng Phủ, Phường 8, Quận 8, Thành phố Hồ Chí Minh",,,"Thuốc, dược phẩm",Nước uống chăm sóc sức khỏe,Quận 8,956,Hùng Phủ,Hồ Chí Minh,Phường 8,"NHÀ THUỐC TÂY NGỌC DUNG
ĐẠT CHUẨN GPP - CHUYÊN NƯỚC ĐIỀU TRỊ BỆNH
ĐC: 956 HÙNG PHỦ P.8 - Q.8",crop_images/GPAH9469.JPG.jpg_1730867822.1869848.jpg
VIP GYM,"95C HƯNG PHÚ, Quận 8, Thành phố Hồ Chí Minh",,,Phòng tập Gym và Yoga,Dịch vụ gym và yoga,Quận 8,95C,HƯNG PHÚ,Thành phố Hồ Chí Minh,,"VIP GYM
ESS-YOGA-NAMOT
95C HƯNG PHÚ - Q.8 - TP.HCM",crop_images/GPAH9470.JPG.jpg_1730868009.9478128.jpg
ĐẠI LÝ DUNG HÒA,"Số 16/24, Ngân Hàng Bình Phương, TP. Hồ Chí Minh",,,,ĐUA - NƯỚC GIẢI KHÁY,,,,Hồ Chí Minh,,"ĐẠI LÝ DUNG HÒA
CHUYÊN CUNG CẤP SĨ VÀ LẺ: ĐUA - NƯỚC GIẢI KHÁY
SỐ 16/24, NGÂN HÀNG BÌNH PHƯƠNG, TP. HỒ CHÍ MINH",crop_images/GPAH9472.JPG.jpg_1730868259.4789562.jpg
ĐẠI LÝ DUNG HÒA,,,,Nước giải khát,Sỉ và lẻ nước giải khát,,,,,,"ĐẠI LÝ DUNG HÒA
CHUYÊN CUNG CẤP SĨ VÀ LẺ
BA - NƯỚC GIẢI KHÁT",crop_images/GPAH9472.JPG.jpg_1730868259.4950688.jpg
Đại Lý Dung Hòa,,,,,Da - Nước giải khát,,,,,,"ĐẠI LÝ DUNG HÒA
CHUYÊN CUNG CẤP SĨ VÀ LẺ
DA - NƯỚC GIẢI KHÁT",crop_images/GPAH9472.JPG.jpg_1730868259.565274.jpg
Ban chỉ huy quân sự Quận 8,Đường ... (không có thông tin),,,Dịch vụ quân sự,"Dịch vụ quân sự, tư vấn và hỗ trợ về quân sự",Quận 8,,,,,"BAN CHI HUY QUÂN SỰ QUẬN 8
BAN CHI HUY QUÂN SỰ PH",crop_images/GPAH9473.JPG.jpg_1730868429.6242688.jpg
,,,,,,,,,,,"BAN CHỈ HUY QUÂN SỰ QUẬN 8
BAN CHỈ HUY QUÂN SỰ PH",crop_images/GPAH9473.JPG.jpg_1730868429.6798825.jpg
Phúc Yến,,0987.225.453,,,,,,,,,"Phúc Yến
0987.225.453",crop_images/GPAH9475.JPG.jpg_1730868816.5436027.jpg
Phúc Yến,,0987.225.453,,,,,,,,,"Phúc Yến
0987.225.453",crop_images/GPAH9475.JPG.jpg_1730868816.5891197.jpg
Phúc Yến,,0987.225.453,,,,,,,,,"Phúc Yến
0987.225.453",crop_images/GPAH9475.JPG.jpg_1730868816.6018817.jpg
Phước Vinh,,,,Salon tóc nam và sửa xe,"Tạo mẫu tóc nam (cắt, cạo, ráy, gội, nhớ tóc bạc); Dịch vụ sửa xe",,,,,,"Phước Vinh
Tạo Mẫu Tóc Nam
Cắt - Cạo - Ráy - Gội - Nhớ Tóc Bạc
Sửa Xe Tư Hiền",crop_images/GPAH9476.JPG.jpg_1730869020.103235.jpg
TRÀ VẢI ĐÀO,,,,Trà hỗn hợp,Trà vải đào,,,,,,"TRÀ
-VẢI
-ĐÀO
Sale Ngày 1/3/2023 Trà Tắc Mua 1 Tặng 1",crop_images/GPAH9476.JPG.jpg_1730869020.1329958.jpg
Phước Vinh,,,,Salon & Automotive Services,"Tạo mẫu tóc nam, Sửa xe tư hiền",,,,,,"Phước Vinh
Tạo Mẫu Tóc Nam
Cắt - Cạo - Ráy - Gội - Nhổ Tóc Bạc
Sửa Xe Tư Hiền",crop_images/GPAH9476.JPG.jpg_1730869020.2052042.jpg
Điểm bán vé số Kim Hà,"Hưng Phú, Phường 8, Quận 8, Thành phố Hồ Chí Minh",0909 380 192,,Bán vé số sỉ & lẻ,Vé số,Quận 8,,,Thành phố Hồ Chí Minh,Phường 8,"Điểm bán vé số sỉ & lẻ
KIM HÀ
HƯNG PHÚ - P.8 - Q.8
DT: 0909 380 192",crop_images/GPAH9477.JPG.jpg_1730869178.898819.jpg
Điểm bán vé số sỉ & lẻ KIM HÀ,"HƯNG PHÚ, P.8, Quận 8, TP.HCM",0909 380 192,,Vé số,"Vé số sỉ và lẻ, nước ngọt LÂM HÀ",Quận 8,,,TP.HCM,P.8,"Điểm bán vé số sỉ & lẻ
KIM HÀ
HƯNG PHÚ - P.8 - 0.8
DT: 0909 380 192
Nước ngọt LÂM HÀ
DT: 0906 038 523 - 08 9999 - 0067",crop_images/GPAH9477.JPG.jpg_1730869178.9486306.jpg
ĐẠI LÝ BIA - NƯỚC NGỌT LÂM HÀ,"81 HÙNG PHÚ, P. 8, Q.B",0906 038 523 - 08 9999 0007,,Đại lý bán lẻ bia và nước ngọt,Bia và nước ngọt,Q.B,81,HÙNG PHÚ,,P. 8,"ĐẠI LÝ BIA - NƯỚC NGỌT
LÂM HÀ
81 HÙNG PHÚ, P. 8, Q.B
0906 038 523 - 08 9999 0007",crop_images/GPAH9477.JPG.jpg_1730869179.0164156.jpg
Fruit House,77 Hùng Phú Phường 8,,,Đồ uống từ trái cây,"Nước ép, Sinh tố, Trà trái cây, Soda",Quận 9,,,,,"Fruit House
Đồng Giá 2.5k
Nước ép
Sinh tố
Trà trái cây
Soda
77 HÙNG PHÚ PHƯỜNG 8 QUẬN 9",crop_images/GPAH9478.JPG.jpg_1730869347.8961127.jpg
Điểm bán vé số Kim Hà,"To Hưng Phú, Phường 8, Quận 8, TP. Hồ Chí Minh",0909 380 192,,Bán vé số sỉ & lẻ,Vé số,Quận 8,,,TP. Hồ Chí Minh,Phường 8,"ĐIỂM BÁN VÉ SỐ SỈ & LẺ
KIM HÀ
TO HƯNG PHÚ - P.&Q.08
DT: 0909 380 192",crop_images/GPAH9478.JPG.jpg_1730869347.9409585.jpg
Fruit House,"77 Hùng Phú, Phường 8, Quận 9",,,"Cửa hàng chuyên về các loại nước ép, sinh tố, trà trái cây và soda","Nước ép, Sinh tố, Trà trái cây, Soda",Quận 9,77,Hùng Phú,,Phường 8,"Fruit House
Đồng Giá 2.5k
Nước ép
Sinh tố
Trà trái cây
Soda
77 HÙNG PHÚ PHƯỜNG 8 QUẬN 9",crop_images/GPAH9478.JPG.jpg_1730869347.9597957.jpg
Fruit House,"77 Hùng Phú, Phường B, Quận 9",,,Cửa hàng đồ uống,"Nước ép trái cây, Sinh tố, Trà trái cây, Soda",Quận 9,77,Hùng Phú,,Phường B,"Fruit House
Đồng Giá 2.5k
Nước ép
Sinh tố
Trà trái cây
Soda
77 HÙNG PHÚ PHƯỜNG B QUẬN 9",crop_images/GPAH9478.JPG.jpg_1730869347.982516.jpg
GSEKAI,,,,Cà phê và trà,Coffee & Tea,,,,,,"GSEKAI
Coffee & Tea",crop_images/GPAH9479.JPG.jpg_1730869451.7584877.jpg
GSEKAI Coffee & Tea,,,,,cà phê và trà,,,,,,"GSEKAI
Coffee & Tea",crop_images/GPAH9479.JPG.jpg_1730869451.8955503.jpg
Trung Tâm TCD.VN,"159D/7 Đạ Nam, Phường 3, Quận 8, TP. Hồ Chí Minh",,,"Giáo dục, đào tạo","Khoá học học từ lớp 3 đến lớp 12 với các môn Toán, Lý, Hóa, Sinh, Văn, Anh",Quận 8,159D/7,Đạ Nam,TP. Hồ Chí Minh,Phường 3,"TRUNG TAM TCD.VN
TOÁN - LÝ - HÓA - SINH - VĂN - ANH
TỪ LỚP 3 ĐẾN LỚP 12
TÁC GIẢ - CHỦ BIÊN: TRẦN CÔNG DIÊU
HỌC TẠI: 159D/7 DẠ NAM, P3, Q8",crop_images/GPAH9481.JPG.jpg_1730869943.992792.jpg
Trung Tâm TCD.VN,,,,Trung tâm giáo dục,"Dạy học Toán, Lý, Hóa, Sinh, Văn, Anh từ lớp 3 đến lớp 12",,,,,,"TRUNG TAM TCD.VN
TOÁN - LÝ - HÓA - SINH - VĂN - ANH
TỪ LỚP 3 ĐẾN LỚP 12",crop_images/GPAH9481.JPG.jpg_1730869944.1023026.jpg
NGTAMTCD.VN,"159D/7 Đa Nam, Phường 3, Quận Sơn",,,Sách và văn phòng phẩm,Sách từ lớp 3 đến lớp 12,Quận Sơn,159D/7,Đa Nam,,Phường 3,"NGTAMTCD.VN
LỚP 3 TỚI 12
159D/7 DA NAM, P3, QS",crop_images/GPAH9481.JPG.jpg_1730869944.2098837.jpg
Shop Phụ Liệu Phi Hương,,0908 722 795 - 0907 341 488,,,"Hạt cườm, phụ liệu may, handmade",,,,,,"Shop Phụ Liệu
Phi Hương
Chuyên: HẠT CƯỜM, PHỤ LIỆU MAY, HANDMADE...
DT: 0908 722 795 - 0907 341 488",crop_images/GPAH9483.JPG.jpg_1730870397.6754453.jpg
Phòng Khám BS Mai Loan - Bệnh Viện Nguyên Tri Phương,"61 Hùng Phú, Phường 8, Quận 8, TP.HCM",0377.555.684,,Dịch vụ chăm sóc sức khỏe,"Khám và điều trị các bệnh như mất ngủ, chóng mặt, đau đầu, đau khớp",Quận 8,61,Hùng Phú,TP.HCM,Phường 8,"PHÒNG KHÁM BS MAI LOAN
BỆNH VIỆN NGUYÊN TRI PHƯƠNG
MẤT NGỦ - CHÓNG MẶT
DAU ĐẦU - DAU KHỚP...
LÀM VIỆC: TỪ 17H-20H CÁC NGÀY TRONG TUẦN
ĐC: 61 HÙNG PHÚ - PHƯỜNG 8 - QUẬN 8 - TP.HCM
GP SỐ: 00229/SYT - GPHD
ĐT: 0377.555.684",crop_images/GPAH9483.JPG.jpg_1730870397.7036955.jpg
Phòng Khám BS Mai Loan - Bệnh Viện Nguyên Tri Phương,"61 Hưng Phú, Phường 8, Quận 8, TP.HCM",0377.555.684,,Dịch vụ chăm sóc sức khỏe,"Chăm sóc mất ngủ, chóng mặt, đau đầu, đau khớp",Quận 8,61,Hưng Phú,TP.HCM,Phường 8,"PHÒNG KHÁM BS MAI LOAN
BỆNH VIỆN NGUYÊN TRI PHƯƠNG
MẤT NGỦ - CHÓNG MẶT
DAU ĐẦU - DAU KHỚP...
LÀM VIỆC: TỪ 17H - 20H CÁC NGÀY TRONG TUẦN
ĐC: 61 HƯNG PHÚ - PHƯỜNG 8 - QUẬN 8 - TP.HCM
GP SỐ: 00229/SYT - GPHD
ĐT: 0377.555.684",crop_images/GPAH9483.JPG.jpg_1730870397.7458832.jpg
Shop Phụ Liệu Phi Hương,,0908 722 795 - 0907 341 488,,Phụ liệu may và handmade,"Hạt cườm, phụ liệu may, handmade",,,,,,"Shop Phụ Liệu
Phi Hương
Chuyên: HẠT CƯỜM, PHỤ LIỆU MAY, HANDMADE...
DT: 0908 722 795 - 0907 341 488",crop_images/GPAH9483.JPG.jpg_1730870397.7646093.jpg
Shop Phụ Liệu Phi Hương,"59 Hướng Phủ, Phường 8, Quận 8, Thành phố Hồ Chí Minh",0908 722 795 - 0907 341 468,,Phụ liệu thời trang,"Hạt cườm, Phụ liệu may, Handmade",Quận 8,59,Hướng Phủ,Thành phố Hồ Chí Minh,Phường 8,"Shop Phụ Liệu
Phi Hương
Chuyên: HẠT CƯỜM, PHỤ LIỆU MAY, HANDMADE.
ĐC: 59 Hướng Phủ, P.8, Q.8, TP.HCM
ĐT: 0908 722 795 - 0907 341 468",crop_images/GPAH9484.JPG.jpg_1730870526.625001.jpg
Phòng khám BS Mai Loan,Bệnh viện Nguyên Trí Phương,,,Dịch vụ y tế,"Mắt Ngủ - Chống Mắt, Đau Đầu - Đau Khớp",,,,,,"Phòng khám BS Mai Loan
Bệnh viện Nguyên Trí Phương
Mắt Ngủ - Chống Mắt
Đau Đầu - Đau Khớp",crop_images/GPAH9484.JPG.jpg_1730870526.6562576.jpg
Shop Phụ Liệu Phi Hương,"59 Hưng Phúc, Phường 8, Quận 8, Thành phố Hồ Chí Minh",0908 722 795 - 0907 341 458,,Phụ liệu may mặc và sản phẩm handmade,"HẠT CƯỜM, PHỤ LIỆU MAY, HANDMADE",Quận 8,59,Hưng Phúc,Thành phố Hồ Chí Minh,Phường 8,"Shop Phụ Liệu
Phi Hương
Chuyên: HẠT CƯỜM, PHỤ LIỆU MAY, HANDMADE.
ĐC: 59 Hưng Phúc, P.8, Q.8, TP.HCM
ĐT: 0908 722 795 - 0907 341 458",crop_images/GPAH9484.JPG.jpg_1730870526.6914947.jpg
